Region_id,ZIP,City,Lat,Lng
101,7000,Eisenstadt,47.84588,16.51807
101,7011,Siegendorf,47.78149,16.54232
103,7091,Breitenbrunn am Neusiedler See,47.86504,16.77756
103,7082,Donnerskirchen,47.89763,16.64179
103,7051,Großhöflein,47.83219,16.48159
103,7053,Hornstein,47.88073,16.4445
103,7013,Klingenbach,47.75547,16.54
103,7072,Mörbisch am See,47.75509,16.66846
103,7052,Müllendorf,47.8379,16.46121
103,2491,Neufeld an der Leitha,47.86744,16.37666
103,7063,Oggau,47.83153,16.66353
103,7064,Oslip,47.82968,16.61851
103,7083,Purbach am Neusiedler See,47.91354,16.69513
103,7081,Schützen am Gebirge,47.85026,16.62385
103,7062,St. Margarethen im Burgenland,47.80403,16.60731
103,7035,Steinbrunn,47.83591,16.41534
103,7061,Trausdorf an der Wulka,47.81409,16.55738
103,7041,Wulkaprodersdorf,47.79597,16.50102
103,7034,Zillingtal,47.81509,16.40861
104,7521,Eberau,47.10791,16.45979
104,7542,Gerersdorf bei Güssing,47.06845,16.25645
104,7540,Güssing,47.05938,16.32394
104,7543,Kukmirn,47.07392,16.20596
104,7534,Olbendorf,47.1906,16.204
104,7533,Ollersdorf im Burgenland,47.183,16.16406
104,7535,St. Michael im Burgenland,47.12756,16.26922
104,7551,Stegersbach,47.16022,16.16579
104,7552,Stinatz,47.20392,16.13166
104,7522,Strem,47.0445,16.41417
105,7572,Deutsch Kaltenbrunn,47.08754,16.10646
105,7564,Dobersdorf,47.02474,16.14552
105,7562,Eltendorf,47.00771,16.20177
105,7561,Heiligenkreuz im Lafnitztal,46.98849,16.25846
105,8380,Jennersdorf,46.93716,16.1406
105,7563,Königsdorf,47.00376,16.17042
105,8384,Minihof-Liebau,46.8817,16.07308
105,8382,Mogersdorf,46.94746,16.22784
105,8385,Neuhaus am Klausenbach,46.86842,16.03043
105,7571,Rudersdorf,47.05114,16.12009
105,8383,St. Martin an der Raab,46.921,16.13351
106,7202,Bad Sauerbrunn,47.77464,16.32511
106,7021,Draßburg,47.74555,16.48794
106,7212,Forchtenstein,47.71148,16.34498
106,7024,Hirm,47.78717,16.45502
106,7031,Krensdorf,47.78621,16.41517
106,7221,Marz,47.7148,16.41163
106,7210,Mattersburg,47.7369,16.39779
106,7201,Neudörfl,47.79587,16.29764
106,7033,Pöttsching,47.80246,16.37597
106,7222,Rohrbach bei Mattersburg,47.71044,16.42457
106,7022,Schattendorf,47.714,16.51491
106,7223,Sieggraben,47.64945,16.37929
106,7032,Sigleß,47.77518,16.3942
106,7203,Wiesen,47.73942,16.338
106,7023,Zemendorf,47.7621,16.45199
107,7163,Andau,47.77535,17.03267
107,7143,Apetlon,47.74377,16.8306
107,2423,Deutsch Jahrndorf,48.01017,17.1092
107,7132,Frauenkirchen,47.83535,16.92396
107,2474,Gattendorf,48.01503,16.9835
107,7122,Gols,47.89696,16.91078
107,7131,Halbturn,47.87146,16.97388
107,7142,Illmitz,47.76188,16.80032
107,7093,Jois,47.96087,16.79706
107,2421,Kittsee,48.09133,17.06595
107,7123,Mönchhof,47.88448,16.94163
107,2475,Neudorf,48.01518,16.92989
107,7100,Neusiedl am See,47.94863,16.84316
107,2425,Nickelsdorf,47.94043,17.06885
107,2422,Pama,48.04848,17.03357
107,7152,Pamhagen,47.69978,16.90601
107,7111,Parndorf,48.00011,16.86052
107,7141,Podersdorf am See,47.85437,16.83709
107,2473,Potzneusiedl,48.04487,16.94811
107,7161,St. Andrä am Zicksee,47.78406,16.94183
107,7162,Tadten,47.76512,16.98475
107,7151,Wallern im Burgenland,47.72538,16.93586
107,7121,Weiden am See,47.92666,16.86765
107,7092,Winden am See,47.95225,16.75256
107,2424,Zurndorf,47.98315,17.00299
108,7301,Deutschkreutz,47.60056,16.62484
108,7372,Draßmarkt,47.51151,16.40086
108,7304,Großwarasdorf,47.54212,16.55184
108,7312,Horitschon,47.58866,16.54756
108,7342,Kaisersdorf,47.53403,16.39634
108,7332,Kobersdorf,47.59508,16.39233
108,7322,Lackenbach,47.58886,16.46534
108,7321,Lackendorf,47.58997,16.50414
108,7442,Lockenhaus,47.40683,16.41761
108,7361,Lutzmannsburg,47.46347,16.63417
108,7444,Mannersdorf an der Rabnitz,47.4295,16.52899
108,7341,Markt St. Martin,47.56431,16.42746
108,7311,Neckenmarkt,47.59778,16.54846
108,7343,Neutal,47.54607,16.44509
108,7302,Nikitsch,47.53611,16.66025
108,7451,Oberloisdorf,47.4466,16.50613
108,7350,Oberpullendorf,47.50313,16.50461
108,7441,Pilgersdorf,47.44007,16.35026
108,7443,Rattersdorf-Liebing,47.41057,16.49863
108,7323,Ritzing,47.60986,16.49687
108,7453,Steinberg-Dörfl,47.48906,16.47424
108,7344,Stoob,47.52926,16.47662
108,7452,Unterpullendorf,47.47319,16.54165
108,7371,Unterrabnitz,47.45186,16.37661
108,7331,Weppersdorf,47.57894,16.4268
109,7431,Bad Tatzmannsdorf,47.33265,16.23003
109,7434,Bernstein,47.40571,16.25577
109,7474,Deutsch Schützen,47.16406,16.44866
109,7503,Großpetersdorf,47.23854,16.31881
109,7473,Hannersdorf,47.22907,16.38779
109,7531,Kemeten,47.24904,16.15092
109,7512,Kohfidisch,47.17528,16.35823
109,7532,Litzelsdorf,47.20685,16.16092
109,7433,Mariasdorf,47.3671,16.23166
109,7411,Markt Allhau,47.29167,16.08045
109,7464,Markt Neuhodis,47.29509,16.39563
109,7511,Mischendorf,47.19406,16.31404
109,7432,Oberschützen,47.35067,16.20741
109,7400,Oberwart,47.2888,16.21086
109,7423,Pinkafeld,47.3716,16.12108
109,7471,Rechnitz,47.30565,16.44042
109,7422,Riedlingsdorf,47.34522,16.13648
109,7501,Rotenturm an der Pinka,47.25239,16.24467
109,7472,Schachendorf,47.26323,16.43386
109,7461,Stadtschlaining,47.32397,16.27919
109,7421,Tauchen-Schaueregg,47.15372,16.26888
109,7435,Unterkohlstätten,47.37586,16.32529
109,7463,Weiden bei Rechnitz,47.30186,16.34756
109,7412,Wolfau,47.2562,16.09508
102,7071,Rust,47.80058,16.67278
210,9551,Bodensdorf,46.6824,13.97177
210,9565,Ebene Reichenau,46.85,13.91639
210,9560,Feldkirchen in Kärnten,46.72397,14.0948
210,9555,Glanegg,46.71484,14.21064
210,9563,Gnesau,46.77539,13.96298
210,9562,Himmelberg,46.74873,14.03742
210,9570,Ossiach,46.6759,13.98546
210,9564,Patergassen,46.81676,13.86674
210,9571,Sirnitz,46.82383,14.0584
210,9554,St. Urban,46.75102,14.16897
210,9552,Steindorf am Ossiacher See,46.6981,14.01081
203,9652,Birnbaum,46.68498,12.88396
203,9635,Dellach,46.66169,13.07955
203,9624,Egg,46.6865,14.09723
203,9615,Görtschach,46.61278,13.465
203,9634,Gundersheim,46.64693,13.12155
203,9620,Hermagor,46.62724,13.37111
203,9631,Jenig,46.62803,13.25275
203,9632,Kirchbach,46.6419,13.18458
203,9640,Kötschach-Mauthen,46.67821,13.00415
203,9653,Liesing,46.69266,12.81637
203,9655,Maria Luggau,46.70496,12.73579
203,9633,Reisach,46.64936,13.15393
203,9651,St. Jakob im Lesachtal,46.68362,12.92775
203,9654,St. Lorenzen im Lesachtal,46.70161,12.78303
203,9623,St. Stefan an der Gail,46.61714,13.51835
203,9614,Vorderberg,46.59529,13.523
203,9622,Weißbriach,46.68722,13.24694
201,9020,Klagenfurt am Wörthersee,46.62364,14.30768
201,9061,Klagenfurt-Wölfnitz,46.66667,14.25
204,9065,Ebenthal,46.60815,14.35535
204,9181,Feistritz im Rosental,46.52017,14.1726
204,9170,Ferlach,46.52677,14.299
204,9131,Grafenstein,46.6107,14.46713
204,9074,Keutschach,46.5919,14.18337
204,9073,Klagenfurt-Viktring,46.59246,14.26993
204,9071,Köttmannsdorf,46.56133,14.23398
204,9201,Krumpendorf,46.62503,14.21153
204,9072,Ludmannsdorf,46.54152,14.1343
204,9161,Maria Rain,46.56083,14.28637
204,9063,Maria Saal,46.6817,14.34775
204,9082,Maria Wörth,46.61574,14.1621
204,9062,Moosburg,46.65752,14.17379
204,9064,Pischeldorf,46.68795,14.45675
204,9130,Poggersdorf,46.65096,14.4504
204,9210,Pörtschach am Wörther See,46.63536,14.14603
204,9081,Reifnitz,46.6128,14.1885
204,9535,Schiefling,46.608,14.09061
204,9173,St. Margareten im Rosental,46.54206,14.42146
204,9162,Strau,46.53879,14.25916
204,9212,Techelsberg am Wörther See,46.64655,14.09537
204,9163,Unterbergen,46.52033,14.28039
205,9371,Brückl,46.75266,14.53236
205,9572,Deutsch Griffen,46.85507,14.07503
205,9372,Eberstein,46.80797,14.55858
205,9360,Friesach,46.95074,14.40599
205,9346,Glödnitz,46.87416,14.11854
205,9362,Grades,46.97952,14.25243
205,9342,Gurk,46.87408,14.29215
205,9334,Guttaring,46.89073,14.51262
205,9375,Hüttenberg,46.9397,14.54877
205,9321,Kappel am Krappfeld,46.83877,14.4839
205,9373,Klein St. Paul,46.83585,14.54106
205,9345,Kleinglödnitz,46.85297,14.13853
205,9376,Knappenberg,46.93494,14.56656
205,9311,Kraig,46.81206,14.36808
205,9314,Launsdorf,46.76857,14.45622
205,9556,Liebenfels,46.7382,14.28691
205,9335,Lölling,46.92093,14.59286
205,9312,Meiselding,46.83934,14.39595
205,9363,Metnitz,46.9813,14.21674
205,9322,Micheldorf,46.91444,14.42731
205,9313,St. Georgen am Längsee,46.78075,14.43161
205,9361,St. Salvator,46.9691,14.35318
205,9300,St. Veit an der Glan,46.76644,14.35919
205,9341,Straßburg,46.89468,14.32895
205,9330,Treibach-Althofen,46.86639,14.45845
205,9344,Weitensfeld,46.72481,14.26362
205,9374,Wieting,46.86971,14.54082
205,9343,Zweinitz,46.86626,14.23013
206,9546,Bad Kleinkirchheim,46.81319,13.79274
206,9805,Baldramsdorf,46.80279,13.44928
206,9771,Berg im Drautal,46.74802,13.13541
206,9772,Dellach,46.66169,13.07955
206,9873,Döbriach,46.77968,13.65518
206,9861,Eisentratten,46.92246,13.57739
206,9831,Flattach,46.93435,13.13029
206,9853,Gmünd,46.9067,13.3654
206,9761,Greifenburg,46.75058,13.18025
206,9843,Großkirchheim,46.99383,12.8822
206,9844,Heiligenblut,47.03987,12.84323
206,9773,Irschen,46.75581,13.02362
206,9815,Kolbnitz,46.87704,13.30571
206,9862,Kremsbrücke,46.96149,13.61809
206,9811,Lendorf,46.83095,13.42269
206,9851,Lieserbrücke,46.82964,13.49216
206,9753,Lind im Drautal,46.76853,13.35605
206,9822,Mallnitz,46.98889,13.16958
206,9854,Malta,46.95463,13.50649
206,9872,Millstatt,46.80449,13.57282
206,9813,Möllbrücke,46.83661,13.36925
206,9842,Mörtschach,46.92185,12.9133
206,9814,Mühldorf,46.85822,13.3445
206,9781,Oberdrauburg,46.74854,12.97105
206,9821,Obervellach,46.93226,13.20207
206,9816,Penk,46.90109,13.26189
206,9812,Pusarnitz,46.84135,13.40053
206,9545,Radenthein,46.80053,13.70322
206,9833,Rangersdorf,46.86237,12.96435
206,9863,Rennweg,47.0277,13.5869
206,9701,Rothenthurn,46.76444,13.60139
206,9751,Sachsenburg,46.82811,13.35061
206,9871,Seeboden,46.8192,13.52146
206,9800,Spittal an der Drau,46.79816,13.49586
206,9832,Stall,46.88768,13.0356
206,9754,Steinfeld,46.75764,13.24701
206,9852,Trebesing,46.88452,13.51101
206,9762,Weißensee,46.69652,13.33521
206,9841,Winklern,46.87072,12.87704
202,9500,Villach,46.61597,13.84873
202,9580,Villach-Drobollach am Faaker See,46.58604,13.9144
202,9523,Villach-Landskron,46.63206,13.88118
202,9524,Villach-St. Magdalen,46.61269,13.88819
202,9504,Villach-Warmbad Villach,46.59135,13.82772
207,9542,Afritz,46.72512,13.79833
207,9601,Arnoldstein,46.54941,13.70966
207,9543,Arriach,46.72954,13.85066
207,9530,Bad Bleiberg,46.62459,13.68593
207,9541,Einöde,46.70685,13.8217
207,9583,Faak am See,46.56611,13.90717
207,9710,Feistritz an der Drau,46.70235,13.66277
207,9613,Feistritz an der Gail,46.5738,13.60441
207,9544,Feld am See,46.77429,13.74634
207,9702,Ferndorf,46.73682,13.62543
207,9584,Finkenstein,46.56437,13.8697
207,9712,Fresach,46.71314,13.689
207,9586,Fürnitz,46.56127,13.81623
207,9585,Gödersdorf,46.56502,13.84816
207,9722,Gummern,46.65552,13.76837
207,9231,Köstenberg,46.64987,14.00965
207,9531,Kreuth,46.62637,13.61837
207,9582,Latschach,46.55739,13.92763
207,9581,Ledenitzen,46.56618,13.96619
207,9182,Maria Elend,46.53071,14.0829
207,9611,Nötsch,46.59017,13.62288
207,9711,Paternion,46.71235,13.63686
207,9587,Riegersdorf,46.54854,13.78004
207,9232,Rosegg,46.58864,14.01771
207,9183,Rosenbach,46.53329,14.03841
207,9520,Sattendorf,46.66446,13.91916
207,9536,St. Egyden,46.5757,14.06655
207,9612,St. Georgen im Gailtal,46.60346,13.59722
207,9184,St. Jakob im Rosental,46.54683,14.05793
207,9714,Stockenboi,46.72376,13.49347
207,9602,Thörl-Maglern,46.54238,13.65052
207,9521,Treffen,46.70685,13.8217
207,9220,Velden am Wörther See,46.61356,14.04183
207,9721,Weißenstein,46.68169,13.71851
207,9241,Wernberg,46.62321,13.93848
207,9713,Zlan,46.72969,13.57995
208,9135,Bad Eisenkappel,46.48599,14.59344
208,9150,Bleiburg,46.58485,14.79598
208,9103,Diex,46.74496,14.61705
208,9141,Eberndorf,46.59016,14.63901
208,9132,Gallizien,46.55968,14.50647
208,9142,Globasnitz,46.55726,14.70083
208,9112,Griffen,46.70383,14.73195
208,9111,Haimburg,46.695,14.6725
208,9125,Kühnsdorf,46.62271,14.63339
208,9133,Miklauzhof,46.53679,14.59638
208,9102,Mittertrixen,46.6985,14.58384
208,9155,Neuhaus,46.64217,14.88724
208,9104,Pustritz,46.74688,14.7447
208,9113,Ruden,46.65629,14.77005
208,9122,St. Kanzian am Klopeiner See,46.61338,14.57579
208,9143,St. Michael ob Bleiburg,46.57839,14.74488
208,9123,St. Primus,46.57943,14.56372
208,9121,Tainach,46.63343,14.53686
208,9100,Völkermarkt,46.6605,14.63388
209,9462,Bad St. Leonhard im Lavanttal,46.96426,14.7896
209,9421,Eitweg,46.77689,14.89004
209,9472,Ettendorf,46.6718,14.94855
209,9473,Lavamünd,46.64144,14.94196
209,9422,Maria Rojach,46.73571,14.88049
209,9461,Prebl,46.9136,14.79765
209,9451,Preitenegg,46.93881,14.92458
209,9463,Reichenfels,47.00759,14.7403
209,9433,St. Andrä,46.76576,14.82279
209,9423,St. Georgen,46.90153,14.37717
209,9434,St. Georgen im Lavanttal,46.71843,14.91598
209,9413,St. Gertraud,46.86853,14.87629
209,9412,St. Margarethen im Lavanttal,46.85168,14.8089
209,9411,St. Michael,46.83466,14.80004
209,9470,St. Paul im Lavanttal,46.69967,14.8714
209,9431,St. Stefan,46.69125,14.6351
209,9441,Twimberg,46.91611,14.84528
209,9400,Wolfsberg,46.83893,14.84553
305,3365,Allhartsberg,48.02649,14.79009
305,3300,Amstetten,48.12334,14.87145
305,3321,Ardagger,48.17462,14.8333
305,3361,Aschbach Markt,48.07255,14.75452
305,4441,Behamberg,48.03348,14.49665
305,3333,Böhlerwerk,47.98485,14.75042
305,4482,Ennsdorf,47.73957,14.06493
305,4432,Ernsthofen,48.12752,14.48269
305,3355,Ertl,47.97668,14.63156
305,3324,Euratsfeld,48.08281,14.93134
305,3325,Ferschnitz,48.09423,14.98425
305,3350,Haag,48.11082,14.56801
305,4431,Haidershofen,48.07704,14.45908
305,3343,Hollenstein an der Ybbs,47.8034,14.77207
305,3331,Kematen,48.03887,14.75256
305,3362,Mauer-Öhling,48.09432,14.79841
305,3364,Neuhofen an der Ybbs,48.05799,14.85539
305,3323,Neustadtl an der Donau,48.19165,14.9045
305,3312,Oed,48.09638,14.79982
305,3342,Opponitz,47.87808,14.82155
305,3332,Rosenau am Sonntagberg,48.00866,14.74049
305,3353,Seitenstetten,48.03607,14.65374
305,3344,St. Georgen am Reith,47.84051,14.87979
305,3304,St. Georgen am Ybbsfelde,48.129,14.95294
305,4303,St. Pantaleon,48.2062,14.5671
305,3352,St. Peter in der Au,48.04482,14.6229
305,4300,St. Valentin,48.17519,14.53204
305,3314,Strengberg,48.14266,14.65225
305,3363,Ulmerfeld-Hausmening,48.0759,14.8182
305,3322,Viehdorf,48.14992,14.89346
305,3313,Wallsee,48.16661,14.71358
305,3351,Weistrach,48.05518,14.58416
305,3354,Wolfsbach,48.07883,14.66953
305,3341,Ybbsitz,47.94724,14.89511
305,3311,Zeillern,48.12933,14.80803
306,2534,Alland,48.05839,16.07839
306,2571,Altenmarkt-Thenneberg,48.01667,15.98333
306,2540,Bad Vöslau,47.96539,16.21404
306,2500,Baden,48.00613,16.23238
306,2560,Berndorf,47.94582,16.10952
306,2602,Blumau-Neurißhof,47.92686,16.30238
306,2443,Deutsch Brodersdorf,47.9388,16.47347
306,2483,Ebreichsdorf,47.96335,16.40261
306,2551,Enzesfeld-Lindabrunn,47.91225,16.17115
306,2525,Günselsdorf,47.94395,16.2602
306,2532,Heiligenkreuz,48.05602,16.128
306,2552,Hirtenberg,47.93096,16.17595
306,2533,Klausen-Leopoldsdorf,48.08821,16.01507
306,2542,Kottingbrunn,47.95137,16.22853
306,2544,Leobersdorf,47.92819,16.21651
306,2441,Mitterndorf an der Fischa,47.99808,16.47226
306,2565,Neuhaus,47.9961,16.04584
306,2522,Oberwaltersdorf,47.97577,16.32209
306,2511,Pfaffstätten,48.01788,16.26373
306,2486,Pottendorf,47.90985,16.38622
306,2563,Pottenstein,47.95821,16.0959
306,2444,Seibersdorf,47.95954,16.51795
306,2523,Tattendorf,47.95658,16.30208
306,2524,Teesdorf,47.9484,16.28354
306,2514,Traiskirchen,48.01527,16.29283
306,2512,Tribuswinkel,48.0065,16.27069
306,2521,Trumau,47.99338,16.34228
306,2442,Unterwaltersdorf,47.96063,16.43073
306,2485,Wampersdorf,47.92264,16.4281
306,2564,Weissenbach an der Triesting,47.98221,16.0397
307,2405,Bad Deutsch Altenburg,48.13459,16.90627
307,2413,Berg,48.1035,17.03936
307,2460,Bruck an der Leitha,48.02552,16.77899
307,2464,Göttlesbrunn,48.05583,16.7386
307,2434,Götzendorf an der Leitha,48.01442,16.58112
307,2410,Hainburg an der Donau,48.14761,16.94205
307,2451,Hof am Leithaberge,47.94385,16.57863
307,2465,Höflein,47.90406,16.66352
307,2452,Mannersdorf am Leithagebirge,47.97411,16.60297
307,2433,Margarethen am Moos,48.04381,16.60365
307,2402,Maria Ellend,48.11172,16.68663
307,2404,Petronell,48.11365,16.868
307,2472,Prellenkirchen,48.07501,16.95199
307,2403,Regelsbrunn,48.10899,16.78103
307,2471,Rohrau,48.06579,16.85933
307,2453,Sommerein,47.9918,16.65854
307,2463,Stixneusiedl,48.04125,16.67359
307,2454,Trautmannsdorf an der Leitha,48.02332,16.6376
307,2462,Wilfleinsdorf,48.01208,16.72214
307,2412,Wolfsthal,48.13766,17.0038
308,2261,Angern an der March,48.37935,16.82895
308,2214,Auersthal,48.37263,16.64091
308,2222,Bad Pirawarth,48.45279,16.59973
308,2232,Deutsch Wagram,48.29903,16.5649
308,2181,Dobermannsdorf,48.59972,16.81855
308,2265,Drösing,48.53998,16.90269
308,2263,Dürnkrut,48.47314,16.85006
308,2251,Ebenthal,48.43757,16.78898
308,2305,Eckartsau,48.14527,16.7974
308,2292,Engelhartstetten,48.18218,16.88146
308,2230,Gänserndorf,48.3408,16.7179
308,2221,Groß Schweinbarth,48.41519,16.63465
308,2301,Groß-Enzersdorf,48.20145,16.55021
308,2286,Haringsee,48.19336,16.78553
308,2184,Hauskirchen,48.61252,16.76145
308,2273,Hohenau an der March,48.60613,16.90492
308,2223,Hohenruppersdorf,48.46388,16.65238
308,2264,Jedenspeigen,48.49833,16.87298
308,2291,Lassee,48.22498,16.82215
308,2285,Leopoldsdorf im Marchfelde,48.22426,16.68972
308,2294,Marchegg Bahnhof,48.25322,16.91773
308,2293,Marchegg Stadt,48.28015,16.90691
308,2282,Markgrafneusiedl,48.26718,16.63181
308,2243,Matzen,48.4028,16.6938
308,2183,Neusiedl an der Zaya,48.60121,16.78634
308,2272,Niederabsdorf,48.56411,16.85384
308,2283,Obersiebenbrunn,48.26505,16.70692
308,2224,Obersulz,48.50216,16.67387
308,2295,Oberweiden,48.30885,16.82626
308,2252,Ollersdorf,48.39636,16.79477
308,2304,Orth an der Donau,48.14704,16.70388
308,2182,Palterndorf,48.59092,16.81618
308,2185,Prinzendorf an der Zaya,48.60086,16.72029
308,2242,Prottes,48.38628,16.73907
308,2281,Raasdorf,48.24635,16.5615
308,2215,Raggendorf,48.39415,16.65861
308,2241,Schönkirchen,48.36442,16.70147
308,2244,Spannberg,48.4642,16.73561
308,2262,Stillfried,48.41005,16.84319
308,2231,Strasshof an der Nordbahn,48.31718,16.64256
308,2284,Untersiebenbrunn,48.25557,16.74525
308,2245,Velm-Götzendorf,48.46855,16.7725
308,2253,Weikendorf,48.34462,16.76646
308,2225,Zistersdorf,48.54553,16.76256
309,3972,Bad Großpertholz,48.62952,14.82607
309,3873,Brand,48.86507,15.01226
309,3861,Eggern,48.90763,15.14952
309,3862,Eisgarn,48.91575,15.1047
309,3950,Gmünd,48.77247,14.98521
309,3922,Großschönau,48.65204,14.94269
309,3860,Heidenreichstein,48.8658,15.1233
309,3962,Heinrichs bei Weitra,48.7474,14.83796
309,3942,Hirschbach,48.74321,15.12585
309,3945,Hoheneich,48.77157,15.02585
309,3973,Karlstift,48.59134,14.7504
309,3932,Kirchberg am Walde,48.72464,15.08744
309,3872,Langegg,48.83194,15.04778
309,3874,Litschau,48.9444,15.04377
309,3871,Nagelberg,48.84008,14.99477
309,3834,Pfaffenschlag bei Waidhofen an der Thaya,48.84335,15.19183
309,3944,Pürbach,48.76338,15.08973
309,3863,Reingers,48.96583,15.14851
309,3943,Schrems,48.79319,15.06946
309,3971,St. Martin,48.66388,14.83945
309,3961,Waldenstein,48.72922,15.01966
309,3970,Weitra,48.70086,14.89458
310,2014,Breitenwaida,48.51324,16.06782
310,2031,Eggendorf im Thale,48.58141,16.17335
310,2032,Enzersdorf im Thale,48.58652,16.24037
310,3704,Glaubendorf,48.5088,15.93935
310,2013,Göllersdorf,48.49302,16.12036
310,3711,Großmeiseldorf,48.53085,15.87339
310,2042,Guntersdorf,48.64929,16.04742
310,2061,Hadres,48.70973,16.13094
310,2082,Hardegg,48.85382,15.86037
310,2054,Haugsdorf,48.70706,16.0729
310,3472,Hohenwarth,48.50614,15.82988
310,2020,Hollabrunn,48.56218,16.07851
310,2022,Immendorf,48.64528,16.12832
310,2053,Jetzelsdorf,48.70719,16.05721
310,2033,Kammersdorf,48.62832,16.2385
310,3721,Limberg,48.59604,15.86468
310,2024,Mailberg,48.67373,16.18214
310,3712,Maissau,48.57263,15.82918
310,2023,Nappersdorf,48.62766,16.19093
310,2081,Niederfladnitz,48.79604,15.89532
310,2052,Pernersdorf-Pfaffendorf,48.70505,16.02967
310,2083,Pleißing,48.8036,15.84194
310,3741,Pulkau,48.7053,15.8607
310,3720,Ravelsbach,48.55178,15.85044
310,2070,Retz,48.75669,15.95234
310,2092,Riegersburg,48.85348,15.77113
310,2073,Schrattenthal,48.71641,15.90868
310,2062,Seefeld-Großkadolz,48.71616,16.18474
310,3714,Sitzendorf an der Schmida,48.5994,15.94129
310,2074,Unterretzbach,48.76696,16.00387
310,2041,Wullersdorf,48.62769,16.10062
310,2051,Zellerndorf,48.69568,15.95946
310,3710,Ziersdorf,48.52737,15.92862
311,3591,Altenburg,48.64775,15.59493
311,3595,Brunn an der Wild,48.69457,15.52036
311,2095,Drosendorf,48.86789,15.62117
311,3730,Eggenburg,48.6431,15.81651
311,3571,Gars am Kamp,48.5962,15.65923
311,2093,Geras,48.79728,15.67367
311,3713,Harmannsdorf,48.60036,15.74066
311,3580,Horn,48.66368,15.65716
311,3753,Hötzelsdorf,48.74555,15.67194
311,3754,Irnfritz,48.74002,15.55652
311,3763,Japons,48.79277,15.56876
311,2091,Langau,48.8314,15.71531
311,3761,Messern,48.71938,15.52759
311,3592,Röhrenbach,48.65534,15.50878
311,3743,Röschitz,48.66645,15.8871
311,3573,Rosenburg,48.62909,15.63797
311,3751,Sigmundsherberg,48.68636,15.74682
311,3744,Stockern,48.65248,15.73596
311,3722,Straning,48.61133,15.86104
311,3742,Theras,48.7308,15.79014
311,3752,Walkenstein,48.71642,15.72813
311,2084,Weitersfeld,48.78121,15.81089
311,2094,Zissersdorf,48.82986,15.62454
312,2102,Bisamberg,48.33163,16.36185
312,2202,Enzersfeld,48.36137,16.42421
312,2115,Ernstbrunn,48.52776,16.36161
312,2201,Gerasdorf,48.29478,16.46771
312,2002,Großmugl,48.49858,16.23034
312,2114,Großrußbach,48.47473,16.41915
312,3464,Hausleiten,48.39434,16.1025
312,2113,Karnabrunn,48.46048,16.37328
312,2100,Korneuburg,48.34371,16.33294
312,2103,Langenzersdorf,48.30972,16.35737
312,2003,Leitzersdorf,48.41781,16.24378
312,2004,Niederhollabrunn,48.44907,16.30077
312,3702,Niederrußbach,48.45311,16.03761
312,2105,Oberrohrbach,48.39698,16.29562
312,2111,Rückersdorf-Harmannsdorf,48.39605,16.37098
312,2011,Sierndorf,48.4294,16.16764
312,2104,Spillern,48.37799,16.25677
312,3463,Stetteldorf am Wagram,48.40868,16.01646
312,2000,Stockerau,48.38515,16.20825
312,2112,Würnitz,48.43004,16.42572
312,3500,Krems an der Donau,48.40997,15.60387
312,3506,Krems-Hollenburg,48.37968,15.69103
313,3641,Aggsbach Markt,48.2941,15.40444
313,3613,Albrechtsberg an der Großen Krems,48.46259,15.36881
313,3601,Dürnstein,48.39546,15.52017
313,3492,Etsdorf am Kamp,48.44389,15.74192
313,3511,Furth bei Göttweig,48.37422,15.61259
313,3494,Gedersdorf,48.43337,15.68773
313,3542,Gföhl,48.51705,15.48978
313,3611,Großheinrichschlag,48.41885,15.38302
313,3493,Hadersdorf am Kamp,48.45829,15.72002
313,3485,Haitzendorf,48.42399,15.74062
313,3544,Idolsberg,48.59623,15.48447
313,3543,Krumau am Kamp,48.58999,15.4493
313,3550,Langenlois,48.47317,15.6769
313,3552,Lengenfeld,48.47185,15.59367
313,3522,Lichtenau,48.4959,15.39071
313,3643,Maria Laach am Jauerling,48.30371,15.3445
313,3512,Mautern,48.39488,15.57601
313,3621,Mitterarnsdorf,48.36512,15.43642
313,3473,Mühlbach am Manhartsberg,48.51832,15.78926
313,3622,Mühldorf,48.37329,15.34573
313,3521,Obermeisling,48.51705,15.48978
313,3508,Paudorf,48.35625,15.61552
313,3564,Plank am Kamp,48.55801,15.68521
313,3532,Rastenfeld,48.574,15.33095
313,3495,Rohrendorf bei Krems,48.41903,15.65531
313,3602,Rossatz,48.39638,15.50427
313,3553,Schiltern,48.51437,15.62828
313,3562,Schönberg,48.51969,15.70026
313,3541,Senftenberg,48.45018,15.55464
313,3620,Spitz,48.36566,15.41408
313,3572,St. Leonhard am Hornerwald,48.59868,15.54645
313,3491,Straß im Straßertale,48.4729,15.73532
313,3610,Weißenkirchen in der Wachau,48.39761,15.47016
313,3561,Zöbing,48.49062,15.69205
314,3222,Annaberg,47.87165,15.37605
314,3153,Eschenau,48.04845,15.56664
314,3183,Freiland,47.97359,15.57082
314,3170,Hainfeld,48.03413,15.77399
314,3192,Hohenberg,47.90676,15.61975
314,2572,Kaumberg,48.02419,15.89863
314,3195,Kernhof,47.81598,15.54489
314,3171,Kleinzell-Salzerbad,47.94629,15.72727
314,3180,Lilienfeld,48.01309,15.59676
314,3224,Mitterbach,47.81405,15.29543
314,3162,Rainfeld,48.04774,15.71127
314,3172,Ramsau,48.00339,15.80359
314,3163,Rohrbach,48.86527,15.1858
314,3193,St. Aegyd am Neuwalde,47.85375,15.56932
314,3161,St. Veit an der Gölsen,48.04342,15.66907
314,3160,Traisen,48.04045,15.60923
314,3184,Türnitz,47.93117,15.49294
314,3223,Wienerbruck,47.85518,15.31019
315,3642,Aggsbach Dorf,48.29379,15.41489
315,3661,Artstetten,48.24222,15.20514
315,3232,Bischofstetten,48.12259,15.4688
315,3372,Blindenmarkt,48.12844,14.987
315,4392,Dorfstetten,48.32703,14.98351
315,3644,Emmersdorf an der Donau,48.24075,15.33698
315,3253,Erlauf,48.18308,15.18402
315,3122,Gansbach,48.30671,15.47246
315,3381,Golling,48.19469,15.17602
315,3383,Hürm,48.15612,15.4124
315,3373,Kemmelbach,48.1539,15.09263
315,3233,Kilb,48.10081,15.40818
315,3241,Kirnberg an der Mank,48.07223,15.32257
315,3660,Klein-Pöchlarn,48.21756,15.21557
315,3375,Krummnußbaum,48.20841,15.16141
315,3663,Laimbach am Ostrong,48.3167,15.12231
315,3652,Leiben,48.24534,15.27458
315,3382,Loosdorf,48.20067,15.40028
315,3240,Mank,48.11187,15.34127
315,3671,Marbach an der Donau,48.21414,15.15235
315,3672,Maria Taferl,48.22542,15.15815
315,3393,Matzleinsdorf,48.20321,15.2745
315,3390,Melk,48.2271,15.32962
315,3662,Münichreith,48.26565,15.13165
315,3371,Neumarkt an der Ybbs,48.14055,15.05893
315,3691,Nöchling,48.22388,14.98273
315,3680,Persenbeug,48.18461,15.07831
315,3252,Petzenkirchen,48.14618,15.15554
315,3380,Pöchlarn,48.21193,15.20899
315,3650,Pöggstall,48.31712,15.19884
315,3654,Raxendorf,48.34219,15.27631
315,3244,Ruprechtshofen,48.13662,15.27657
315,3374,Säusenstein,48.19103,15.11525
315,3392,Schönbühel an der Donau,48.25596,15.37324
315,3243,St. Leonhard am Forst,48.14282,15.28507
315,3376,St. Martin-Karlsbach,48.16389,15.02222
315,3684,St. Oswald,48.26907,15.03922
315,3242,Texing,48.04822,15.32361
315,3653,Weiten,48.29157,15.26576
315,3370,Ybbs an der Donau,48.17692,15.08161
315,3683,Yspertal,48.28811,15.06018
316,2144,Altlichtenwarth,48.6446,16.79643
316,2141,Ameis,48.67111,16.53677
316,2151,Asparn an der Zaya,48.58656,16.49639
316,2275,Bernhardsthal,48.69204,16.86922
316,2213,Bockfließ,48.36031,16.60094
316,2165,Drasenhofen,48.75581,16.6466
316,2162,Falkenstein,48.73498,16.5966
316,2132,Frättingsdorf,48.64281,16.5
316,2191,Gaweinstal,48.47704,16.59033
316,2152,Gnadendorf,48.61671,16.395
316,2203,Großebersdorf,48.3624,16.46925
316,2212,Großengersdorf,48.35783,16.56978
316,2034,Großharras,48.66346,16.24466
316,2143,Großkrut,48.64411,16.72473
316,2145,Hausbrunn,48.62867,16.82818
316,2171,Herrnbaumgarten,48.6967,16.68198
316,2192,Kettlasbrunn,48.5606,16.65784
316,2136,Laa an der Thaya,48.72104,16.38568
316,2126,Ladendorf,48.53309,16.4933
316,2133,Loosdorf,48.6497,16.4452
316,2130,Mistelbach,48.56749,16.57232
316,2125,Neubau,48.50028,16.51901
316,2135,Neudorf bei Staatz,48.7211,16.49128
316,2124,Niederkreuzstetten,48.48041,16.4793
316,2116,Niederleis,48.55015,16.39706
316,2163,Ottenthal,48.76121,16.57884
316,2211,Pillichsdorf,48.36453,16.54002
316,2161,Poysbrunn,48.71886,16.62878
316,2170,Poysdorf,48.66785,16.62831
316,2274,Rabensburg,48.64664,16.90353
316,2276,Reintal,48.70029,16.82471
316,2123,Schleinbach,48.42148,16.46961
316,2172,Schrattenberg,48.72434,16.72194
316,2134,Staatz-Kautendorf,48.67583,16.48634
316,2153,Stronsdorf,48.65307,16.29801
316,2122,Ulrichskirchen,48.4013,16.49307
316,2154,Unterstinkenbrunn,48.66609,16.34801
316,2164,Wildendürnbach,48.7564,16.50116
316,2193,Wilfersdorf,48.58759,16.64524
316,2120,Wolkersdorf im Weinviertel,48.38469,16.51516
316,2064,Wulzeshofen,48.71791,16.30079
316,2063,Zwingendorf,48.70395,16.2394
317,2481,Achau,48.08038,16.38655
317,2362,Biedermannsdorf,48.08338,16.34565
317,2384,Breitenfurt bei Wien,48.13333,16.15
317,2345,Brunn am Gebirge,48.10698,16.28397
317,2531,Gaaden,48.08044,16.22136
317,2372,Gießhübl,48.07058,16.27994
317,2352,Gumpoldskirchen,48.04548,16.277
317,2353,Guntramsdorf,48.04724,16.31411
317,2332,Hennersdorf,48.1058,16.36335
317,2371,Hinterbrühl,48.08692,16.24778
317,2391,Kaltenleutgeben,48.11704,16.1997
317,2381,Laab im Walde,48.15575,16.17389
317,2361,Laxenburg,48.06865,16.35624
317,2344,Maria Enzersdorf,48.101,16.28427
317,2340,Mödling,48.08597,16.28426
317,2482,Münchendorf,48.02975,16.37943
317,2380,Perchtoldsdorf,48.11804,16.26608
317,2393,Sittendorf,48.07058,16.27994
317,2392,Sulz im Wienerwald,48.09882,16.1383
317,2331,Vösendorf,48.12204,16.338
317,2334,Vösendorf,48.12204,16.338
317,2351,Wiener Neudorf,48.08306,16.31392
318,2870,Aspang,47.55576,16.08997
318,2624,Breitenau,47.73364,16.14305
318,2673,Breitenstein,47.65984,15.82146
318,2842,Edlitz,47.59771,16.14122
318,2873,Feistritz am Wechsel,47.59939,16.05333
318,2640,Gloggnitz,47.67537,15.93975
318,2840,Grimmenstein,47.61608,16.12673
318,2733,Grünbach am Schneeberg,47.79633,15.9883
318,2880,Kirchberg am Wechsel,47.60952,15.99073
318,2671,Küb,47.68095,15.88005
318,2642,Maria Schutz,47.64191,15.86904
318,2872,Mönichkirchen,47.51249,16.03967
318,2661,Naßwald,47.76386,15.69721
318,2620,Neunkirchen,47.72132,16.08067
318,2650,Payerbach,47.69229,15.86352
318,2823,Pitten,47.71602,16.18709
318,2654,Prein an der Rax,47.67404,15.76398
318,2734,Puchberg am Schneeberg,47.78721,15.91336
318,2651,Reichenau an der Rax,47.69528,15.84534
318,2641,Schottwien,47.65644,15.87242
318,2625,Schwarzau am Steinfelde,47.73207,16.1718
318,2662,Schwarzau im Gebirge,47.81253,15.705
318,2824,Seebenstein,47.70182,16.14302
318,2680,Semmering,47.6326,15.8292
318,2631,Sieding-Stixenstein,47.74836,15.98211
318,2731,St. Egyden am Steinfeld,47.78198,16.10244
318,2630,Ternitz,47.71615,16.03528
318,2832,Thernberg,47.66198,16.17691
318,2881,Trattenbach,47.60248,15.89013
318,2831,Warth,47.66857,16.1297
318,2732,Willendorf,47.78985,16.05676
318,2632,Wimpassing im Schwarzatale,47.70282,16.03357
318,2871,Zöbern,47.51103,16.13399
302,3140,Pottenbrunn,48.23817,15.69644
302,3151,St. Georgen am Steinfelde,48.13847,15.61321
302,3100,St. Pölten,48.20454,15.62266
302,3104,St. Pölten-Harland,48.16124,15.63857
302,3105,St. Pölten-Radlberg,48.25527,15.68657
302,3107,St. Pölten-Traisenpark,48.22069,15.64122
319,3033,Altlengbach,48.15263,15.9307
319,3041,Asperhofen,48.24605,15.92536
319,3071,Böheimkirchen,48.198,15.76196
319,3032,Eichgraben,48.17228,15.98431
319,3213,Frankenfels,47.98246,15.32582
319,3131,Getzersdorf,48.32855,15.69482
319,3384,Groß Sierning,48.18823,15.45758
319,3386,Hafnerbach,48.21664,15.48848
319,3130,Herzogenburg,48.28474,15.69489
319,3202,Hofstetten,48.09704,15.51137
319,3052,Innermanzing,48.13383,15.914
319,3141,Kapelln,48.25853,15.75656
319,3121,Karlstetten,48.25859,15.56709
319,3072,Kasten bei Böheimkirchen,48.15325,15.77917
319,3204,Kirchberg an der Pielach,48.02699,15.42868
319,3062,Kirchstetten,48.18452,15.81755
319,3053,Laaben,48.17421,15.88742
319,3211,Loich,47.99616,15.40142
319,3034,Maria Anzbach,48.19037,15.93069
319,3074,Michelbach,48.10095,15.76348
319,3110,Neidling,48.23701,15.55614
319,3040,Neulengbach,48.1976,15.90779
319,3134,Nußdorf,48.35512,15.69456
319,3200,Ober-Grafendorf,48.15071,15.54447
319,3124,Oberwölbling,48.31871,15.59134
319,3123,Obritzberg,48.29156,15.59329
319,3061,Ollersbach,48.18671,15.84475
319,3142,Perschling,48.21453,15.81552
319,3385,Prinzersdorf,48.20257,15.51607
319,3143,Pyhra,48.15843,15.68565
319,3203,Rabenstein an der Pielach,48.06532,15.46757
319,3212,Schwarzenbach an der Pielach,47.94628,15.38349
319,3051,St. Christophen,48.17479,15.88661
319,3231,St. Margarethen an der Sierning,48.15934,15.49071
319,3125,Statzendorf,48.30791,15.64091
319,3073,Stössing,48.12299,15.81345
319,3133,Traismauer,48.35123,15.74314
319,3144,Wald,48.12431,15.69577
319,3150,Wilhelmsburg,48.10529,15.60613
320,3292,Gaming,47.92944,15.08818
320,3221,Gösing an der Mariazellerbahn,47.89135,15.27904
320,3345,Göstling an der Ybbs,47.80797,14.93091
320,3264,Gresten,47.9856,15.02534
320,3291,Kienberg,47.9458,15.12659
320,3295,Lackenhof,47.86991,15.15062
320,3294,Langau,47.84396,15.12849
320,3293,Lunz am See,47.86142,15.0298
320,3281,Oberndorf an der Melk,48.06384,15.21961
320,3214,Puchenstuben,47.92834,15.2869
320,3251,Purgstall,48.057,15.13114
320,3263,Randegg,48.01158,14.97287
320,3270,Scheibbs,48.00506,15.16793
320,3283,St. Anton an der Jeßnitz,47.96065,15.20702
320,3282,St. Georgen an der Leys,48.03152,15.22671
320,3261,Steinakirchen am Forst,48.06853,15.04911
320,3262,Wang,48.04559,15.02614
320,3250,Wieselburg,48.13059,15.13859
321,3462,Absdorf,48.40015,15.97939
321,3474,Altenwörth,48.38547,15.8589
321,3452,Atzenbrugg,48.29147,15.90554
321,3481,Fels am Wagram,48.43842,15.81828
321,3483,Feuersbrunn,48.43978,15.78669
321,3482,Gösing am Wagram,48.47221,15.81011
321,3484,Grafenwörth,48.40855,15.77717
321,3422,Greifenstein,48.34597,16.24198
321,3471,Großriedenthal,48.48412,15.86793
321,3701,Großweikersdorf,48.47222,15.98264
321,3413,Hintersdorf,48.29993,16.21616
321,3441,Judenau,48.28499,16.00837
321,3470,Kirchberg am Wagram,48.43427,15.89863
321,3465,Königsbrunn am Wagram,48.41823,15.94418
321,3433,Königstetten,48.30105,16.14536
321,3425,Langenlebarn,48.3266,16.1206
321,3442,Langenrohr,48.3048,16.00991
321,3451,Michelhausen,48.29023,15.94024
321,3004,Ried am Riederberg,48.25702,16.06952
321,3443,Sieghartskirchen,48.25484,16.01301
321,3454,Sitzenberg-Reidling,48.32085,15.8088
321,3423,St. Andrä-Wördern,48.33039,16.21224
321,3434,Tulbing,48.29338,16.12057
321,3430,Tulln an der Donau,48.33098,16.05202
321,3042,Würmla,48.25519,15.85977
321,3424,Zeiselmauer,48.3254,16.17866
321,3435,Zwentendorf an der Donau,48.34463,15.91031
322,3814,Aigen,48.84653,15.48551
322,3813,Dietmanns,48.79314,15.38124
322,3843,Dobersberg,48.91488,15.32198
322,3852,Gastern,48.89399,15.22042
322,3812,Groß Siegharts,48.79123,15.40444
322,3824,Großau,48.88312,15.5207
322,3822,Karlstein an der Thaya,48.88285,15.40448
322,3851,Kautzen,48.9302,15.24005
322,3762,Ludweis,48.76969,15.49122
322,3820,Raabs an der Thaya,48.85,15.5
322,3842,Thaya,48.85504,15.28965
322,3902,Vitis,48.75875,15.18253
322,3830,Waidhofen an der Thaya,48.81615,15.28192
322,3844,Waldkirchen an der Thaya,48.94031,15.3497
322,3823,Weikertschlag an der Thaya,48.9121,15.47537
322,3841,Windigsteig,48.76543,15.2873
322,3340,Waidhofen an der Ybbs,47.96052,14.77362
324,2435,Ebergassing,48.04567,16.51896
324,2401,Fischamend,48.11936,16.61327
324,3003,Gablitz,48.22892,16.15413
324,2440,Gramatneusiedl,48.02903,16.48943
324,2325,Himberg,48.11504,16.55788
324,3421,Höflein an der Donau,48.34991,16.27446
324,2431,Kleinneusiedl,48.09259,16.60567
324,3400,Klosterneuburg,48.30515,16.32497
324,3420,Kritzendorf,48.33026,16.30031
324,2333,Leopoldsdorf,48.10858,16.39225
324,2326,Maria Lanzendorf,48.09887,16.41843
324,3001,Mauerbach,48.24544,16.16791
324,3021,Pressbaum,48.17836,16.07612
324,3002,Purkersdorf,48.20836,16.17587
324,3031,Rekawinkel,48.1794,16.02406
324,2432,Schwadorf,48.06917,16.5802
324,2320,Schwechat,48.1409,16.47716
324,3013,Tullnerbach-Lawies,48.19262,16.09807
324,3011,Untertullnerbach,48.18976,16.12642
324,3012,Wolfsgraben,48.15862,16.12197
324,2322,Zwölfaxing,48.11175,16.46335
304,2700,Wiener Neustadt,47.81293,16.24555
323,2822,Bad Erlach,47.72729,16.21441
323,2721,Bad Fischau,47.83152,16.16681
323,2853,Bad Schönau,47.49585,16.23435
323,2833,Bromberg,47.66494,16.20984
323,2490,Ebenfurth,47.87632,16.37233
323,2492,Eggendorf,47.85832,16.32238
323,2603,Felixdorf,47.88174,16.24194
323,2770,Gutenstein,47.87602,15.88929
323,2852,Hochneukirchen,47.45738,16.20281
323,2802,Hochwolkersdorf,47.66094,16.28301
323,2724,Hohe Wand-Stollhof,47.83052,16.07006
323,2812,Hollenthon,47.59003,16.25932
323,2801,Katzelsdorf,47.77984,16.26966
323,2860,Kirchschlag in der Buckligen Welt,47.50201,16.29635
323,2851,Krumbach,47.52184,16.1936
323,2821,Lanzenkirchen,47.74283,16.23917
323,2813,Lichtenegg,47.59943,16.19747
323,2493,Lichtenwörth-Nadelburg,47.83249,16.29573
323,2753,Markt Piesting,47.87301,16.12688
323,2761,Miesenbach,47.84077,15.98205
323,2723,Muthmannsdorf,47.8371,16.11162
323,2755,Oed,47.87889,16.02433
323,2763,Pernitz,47.8977,15.96018
323,2663,Rohr im Gebirge,47.8951,15.73624
323,2803,Schwarzenbach,47.63544,16.35107
323,2601,Sollenau,47.89731,16.24996
323,2751,Steinabrückl,47.86991,16.20174
323,2604,Theresienfeld,47.86046,16.24805
323,2754,Waldegg,47.86874,16.05149
323,2811,Wiesmath,47.61676,16.28786
323,2722,Winzendorf,47.81196,16.11229
323,2752,Wöllersdorf,47.86859,16.17017
325,3804,Allentsteig,48.69578,15.32811
325,3925,Arbesbach,48.494,14.95528
325,3903,Echsenbach,48.71758,15.21741
325,3594,Franzen,48.61906,15.39505
325,3533,Friedersbach,48.59,15.26917
325,3800,Göpfritz an der Wild,48.72473,15.40037
325,3912,Grafenschlag,48.50077,15.16814
325,3524,Grainbrunn,48.48566,15.26955
325,3920,Groß Gerungs,48.57401,14.95804
325,3913,Großgöttfritz,48.53924,15.18828
325,3665,Gutenbrunn,48.36452,15.11812
325,3923,Jagenbach,48.639,15.03092
325,3811,Kirchberg an der Wild,48.75107,15.40492
325,3623,Kottes,48.41581,15.30249
325,3921,Langschlag,48.5755,14.88362
325,3664,Martinsberg,48.37529,15.15017
325,3593,Neupölla,48.64264,15.44582
325,3531,Niedernondorf,48.54846,15.2743
325,3631,Ottenschlag,48.42453,15.22008
325,3911,Rappottenstein,48.52165,15.07857
325,3924,Rosenau Schloß,48.60286,15.06666
325,3525,Sallingberg,48.46657,15.23191
325,3633,Schönbach,48.45325,15.03932
325,3900,Schwarzenau,48.74328,15.2593
325,3931,Schweiggers,48.66844,15.06228
325,3632,Traunstein,48.43555,15.11636
325,3914,Waldhausen,48.52183,15.26081
325,3910,Zwettl,48.60545,15.1659
404,5122,Ach,48.15758,12.83525
404,4950,Altheim,48.25042,13.2327
404,5252,Aspach,48.18534,13.30473
404,5224,Auerbach,48.06469,13.10741
404,5282,Braunau,48.25884,13.03494
404,5280,Braunau am Inn,48.25884,13.03494
404,5274,Burgkirchen,48.20292,13.10089
404,5142,Eggelsberg,48.07753,12.99147
404,5143,Feldkirchen bei Mattighofen,48.068,13.04505
404,5131,Franking,48.0527,12.91205
404,5211,Friedburg,48.01831,13.24883
404,5132,Geretsberg,48.0893,12.93682
404,5133,Gilgenberg am Weilhart,48.13015,12.93962
404,5144,Handenberg,48.13449,13.00791
404,5251,Höhnhart,48.16572,13.26762
404,5225,Jeging,48.05025,13.14824
404,5232,Kirchberg bei Mattighofen,48.03955,13.10047
404,5221,Lochen,48.00775,13.1801
404,5241,Maria Schmolln,48.13856,13.21819
404,5230,Mattighofen,48.10411,13.14989
404,5270,Mauerkirchen,48.19109,13.13632
404,4962,Mining,48.27681,13.16106
404,5271,Moosbach,48.20675,13.16482
404,5141,Moosdorf,48.04596,12.98909
404,5222,Munderfing,48.06801,13.18179
404,5145,Neukirchen an der Enknach,48.17892,13.0475
404,5121,Ostermiething,48.046,12.8299
404,5223,Pfaffstätt,48.07517,13.14659
404,5233,Pischelsdorf am Engelbach,48.12996,13.08336
404,4951,Polling im Innkreis,48.23027,13.28323
404,5273,Roßbach,48.20137,13.2529
404,5231,Schalchen,48.11913,13.15663
404,5212,Schneegattern,48.02444,13.29473
404,5134,Schwand im Innkreis,48.17878,12.96666
404,5242,St. Johann am Walde,48.1214,13.28443
404,5120,St. Pantaleon,48.01053,12.89461
404,4963,St. Peter am Hart,48.24133,13.11797
404,5272,Treubach,48.19453,13.21389
404,5261,Uttendorf,48.15533,13.11856
404,4952,Weng im Innkreis,48.23479,13.1782
404,4933,Wildenau,48.206,13.31769
405,4072,Alkoven,48.28769,14.10736
405,4082,Aschach an der Donau,48.36681,14.02535
405,4075,Breitenaich,48.26144,13.97759
405,4070,Eferding,48.30862,14.02363
405,4083,Haibach ob der Donau,48.40483,13.92226
405,4081,Hartkirchen,48.36276,14.0032
405,4731,Prambachkirchen,48.31533,13.904
405,4612,Scharten,48.25171,14.03611
405,4076,St. Marienkirchen an der Polsenz,48.26442,13.93065
405,4074,Stroheim,48.33716,13.95754
406,4283,Bad Zell,48.34965,14.66993
406,4240,Freistadt,48.51111,14.50488
406,4264,Grünbach,48.58777,14.56048
406,4293,Gutau,48.4172,14.61332
406,4232,Hagenberg im Mühlkreis,48.36745,14.51601
406,4242,Hirschbach im Mühlkreis,48.48839,14.41148
406,4292,Kefermarkt,48.44291,14.53737
406,4280,Königswiesen,48.40698,14.8405
406,4291,Lasberg,48.47146,14.54076
406,4262,Leopoldschlag,48.61568,14.50333
406,4252,Liebenau,48.53182,14.80684
406,4281,Mönchdorf,48.36073,14.79624
406,4212,Neumarkt im Mühlkreis,48.42752,14.48412
406,4282,Pierbach,48.34826,14.75568
406,4230,Pregarten,48.35513,14.53084
406,4261,Rainbach im Mühlkreis,48.55827,14.47694
406,4251,Sandl,48.56047,14.64335
406,4274,Schönau im Mühlkreis,48.39341,14.73042
406,4294,St. Leonhard bei Freistadt,48.44432,14.67841
406,4271,St. Oswald bei Freistadt,48.50052,14.58994
406,4284,Tragwein,48.33124,14.62205
406,4231,Untergaisbach,48.33084,14.50231
406,4273,Unterweißenbach,48.43522,14.78206
406,4224,Wartberg ob der Aist,48.34921,14.50858
406,4272,Weitersfelden,48.47739,14.72872
406,4263,Windhaag bei Freistadt,48.58635,14.56289
407,4813,Altmünster,47.90092,13.7647
407,4822,Bad Goisern am Hallstättersee,47.64081,13.617
407,4820,Bad Ischl,47.71154,13.62382
407,4802,Ebensee,47.8127,13.77385
407,4810,Gmunden,47.91838,13.79945
407,4824,Gosau,47.58355,13.53378
407,4825,Gosau-Hintertal,47.5508,13.5161
407,4645,Grünau im Almtal,47.8537,13.95602
407,4816,Gschwandt,47.93513,13.84429
407,4830,Hallstatt,47.55729,13.64696
407,4656,Kirchham,47.97092,13.89877
407,4663,Laakirchen,47.98255,13.82372
407,4821,Lauffen,47.67323,13.61661
407,4814,Neukirchen,47.8747,13.7097
407,4831,Obertraun,47.5571,13.68712
407,4664,Oberweis,47.95268,13.81916
407,4694,Ohlsdorf,47.96111,13.79193
407,4812,Pinsdorf,47.93009,13.77084
407,4661,Roitham,48.02429,13.82203
407,4644,Scharnstein,47.90399,13.96112
407,4817,St. Konrad,47.91266,13.88891
407,5360,St. Wolfgang im Salzkammergut,47.73827,13.44818
407,4823,Steeg,47.61064,13.63229
407,4662,Steyrermühl,47.9907,13.79972
407,4801,Traunkirchen,47.84476,13.78979
407,4655,Vorchdorf,48.00372,13.92292
408,4676,Aistersheim,48.18658,13.74206
408,4674,Altenhof am Hausruck,48.1369,13.68748
408,4701,Bad Schallerbach,48.23127,13.91979
408,4713,Gallspach,48.20658,13.81418
408,4673,Gaspoltshofen,48.14325,13.73628
408,4682,Geboltskirchen,48.15319,13.63365
408,4710,Grieskirchen,48.23413,13.83079
408,4680,Haag am Hausruck,48.18509,13.6413
408,4733,Heiligenberg,48.35397,13.82274
408,4716,Hofkirchen an der Trattnach,48.22049,13.74028
408,4633,Kematen am Innbach,48.17662,13.86174
408,4714,Meggenhofen,48.18024,13.7948
408,4712,Michaelnbach,48.2879,13.83148
408,4723,Natternbach,48.39788,13.74905
408,4724,Neukirchen am Walde,48.40503,13.78127
408,4720,Neumarkt im Hausruckkreis,48.27343,13.72566
408,4722,Peuerbach,48.34525,13.77003
408,4742,Pram,48.23469,13.60623
408,4681,Rottenbach,48.20613,13.67999
408,4707,Schlüßlberg,48.22204,13.86783
408,4084,St. Agatha,48.3854,13.878
408,4732,St. Thomas,48.28501,13.87892
408,4715,Taufkirchen an der Trattnach,48.24694,13.74866
408,4730,Waizenkirchen,48.33015,13.85688
408,4702,Wallern an der Trattnach,48.2315,13.94718
408,4675,Weibern,48.18561,13.70329
408,4741,Wendling,48.23172,13.66628
409,4594,Grünburg,47.9699,14.26311
409,4573,Hinterstoder,47.69966,14.15485
409,4560,Kirchdorf an der Krems,47.90345,14.12305
409,4564,Klaus an der Pyhrnbahn,47.83261,14.15771
409,4550,Kremsmünster,48.05372,14.13148
409,4592,Leonstein,47.89532,14.2309
409,4563,Micheldorf,47.88009,14.13673
409,4591,Molln,47.88592,14.25764
409,4542,Nußbach,47.97211,14.16343
409,4593,Obergrünburg,47.95147,14.25539
409,4643,Pettenbach,47.96084,14.01684
409,4551,Ried im Traunkreis,48.0249,14.07209
409,4581,Rosenau am Hengstpaß,47.71272,14.3875
409,4575,Roßleithen,47.70063,14.27515
409,4553,Schlierbach,47.93749,14.12666
409,4582,Spital am Pyhrn,47.66452,14.3403
409,4572,St. Pankraz,47.76478,14.20565
409,4562,Steinbach am Ziehberg,47.89197,14.0313
409,4571,Steyrling,47.80666,14.13031
409,4574,Vorderstoder,47.71248,14.22473
409,4552,Wartberg an der Krems,47.98914,14.11685
409,4580,Windischgarsten,47.72192,14.32841
401,4020,Linz,48.30607,14.28629
401,4030,Linz,48.30607,14.28629
401,4040,Linz,48.30607,14.28629
410,4511,Allhaming,48.15285,14.16993
410,4052,Ansfelden,48.20963,14.28974
410,4481,Asten,48.21949,14.41721
410,4622,Eggendorf im Traunkreis,48.1307,14.14916
410,4470,Enns,48.21419,14.47938
410,4053,Haid,48.23655,14.26446
410,4483,Hargelsberg,48.14879,14.4247
410,4492,Hofkirchen im Traunkreis,48.14057,14.37813
410,4063,Hörsching,48.22638,14.17818
410,4531,Kematen an der Krems,48.11019,14.19143
410,4484,Kronstorf,48.14203,14.46508
410,4060,Leonding,48.27971,14.24878
410,4501,Neuhofen an der Krems,48.13806,14.22834
410,4491,Niederneukirchen,48.1604,14.33899
410,4064,Oftering,48.23467,14.13333
410,4061,Pasching,48.2583,14.20817
410,4533,Piberbach,48.11523,14.22671
410,4055,Pucking,48.1885,14.18483
410,4490,St. Florian,48.20566,14.37955
410,4502,St. Marien,48.14592,14.27827
410,4062,Thening,48.25536,14.16564
410,4050,Traun,48.22106,14.23709
410,4073,Wilhering,48.32366,14.18853
411,4341,Arbing,48.22894,14.70354
411,4332,Au an der Donau,48.22678,14.58203
411,4362,Bad Kreuzen,48.26643,14.8073
411,4342,Baumgartenberg,48.2089,14.74315
411,4371,Dimbach,48.30613,14.90797
411,4360,Grein,48.22756,14.85444
411,4223,Katsdorf,48.31797,14.47387
411,4352,Klam,48.22472,14.78252
411,4310,Mauthausen,48.24086,14.51713
411,4343,Mitterkirchen,48.18592,14.71154
411,4323,Münzbach,48.26684,14.71268
411,4331,Naarn,48.23493,14.6068
411,4363,Pabneukirchen,48.32016,14.81738
411,4320,Perg,48.2502,14.63372
411,4324,Rechberg,48.32168,14.71141
411,4312,Ried in der Riedmark,48.27036,14.52844
411,4382,Sarmingstein,48.23152,14.94038
411,4351,Saxen,48.20782,14.7899
411,4311,Schwertberg,48.27404,14.58207
411,4372,St. Georgen am Walde,48.35999,14.89603
411,4222,St. Georgen an der Gusen,48.27192,14.44843
411,4381,St. Nikola an der Donau,48.23243,14.9075
411,4364,St. Thomas,48.17406,13.48164
411,4391,Waldhausen im Strudengau,48.27305,14.94817
411,4322,Windhaag bei Perg,48.28322,14.68112
412,4754,Andrichsfurt,48.26456,13.5257
412,4980,Antiesenhofen,48.3438,13.39861
412,4971,Aurolzmünster,48.2488,13.45363
412,4906,Eberschwang,48.15438,13.5617
412,4970,Eitzing,48.24009,13.43196
412,4922,Geiersberg,48.19982,13.58124
412,4943,Geinberg,48.2645,13.29276
412,4942,Gurten,48.24091,13.34439
412,4921,Hohenzell,48.19298,13.54385
412,4932,Kirchheim im Innkreis,48.20978,13.36035
412,4772,Lambrechten,48.31774,13.51456
412,4923,Lohnsburg,48.13342,13.37545
412,4941,Mehrnbach,48.20804,13.43507
412,4931,Mettmach,48.17258,13.34445
412,4961,Mühlheim am Inn,48.28162,13.214
412,4912,Neuhofen im Innkreis,48.18949,13.47357
412,4982,Obernberg am Inn,48.32167,13.3354
412,4974,Ort im Innkreis,48.31508,13.43475
412,4743,Peterskirchen,48.23782,13.54673
412,4925,Pramet,48.14298,13.4876
412,4981,Reichersberg,48.33576,13.3593
412,4910,Ried im Innkreis,48.2082,13.48713
412,4920,Schildorn,48.14585,13.46372
412,4983,St. Georgen bei Obernberg am Inn,48.29187,13.33349
412,4926,St. Marienkirchen am Hausruck,48.18186,13.57905
412,4973,St. Martin,48.2312,14.26731
412,4753,Taiskirchen im Innkreis,48.26358,13.5727
412,4972,Utzenaich,48.27581,13.46168
412,4924,Waldzell,48.13539,13.42746
412,4984,Weilbach,48.2771,13.37192
413,4160,Aigen im Mühlkreis,48.64626,13.97121
413,4121,Altenfelden,48.48558,13.96827
413,4122,Arnreit,48.52549,13.99509
413,4170,Haslach an der Mühl,48.57539,14.04103
413,4184,Helfenberg,48.54341,14.1431
413,4142,Hofkirchen im Mühlkreis,48.48283,13.81046
413,4162,Julbach,48.65898,13.86709
413,4163,Klaffer am Hochficht,48.69504,13.88261
413,4115,Kleinzell im Mühlkreis,48.45631,13.99226
413,4154,Kollerschlag,48.60517,13.84112
413,4132,Lembach im Mühlkreis,48.49445,13.89558
413,4120,Neufelden,48.48426,13.99964
413,4114,Neuhaus an der Donau,48.42113,14.01489
413,4143,Neustift im Mühlkreis,48.52885,13.75635
413,4133,Niederkappel,48.46511,13.88094
413,4174,Niederwaldkirchen,48.45094,14.08479
413,4144,Oberkappel,48.55219,13.77098
413,4131,Obermühl,48.61344,13.89634
413,4153,Peilstein im Mühlviertel,48.6182,13.89379
413,4141,Pfarrkirchen im Mühlkreis,48.50391,13.82557
413,4134,Putzleinsdorf,48.51658,13.87337
413,4150,Rohrbach in Oberösterreich,48.57284,13.99051
413,4152,Sarleinsbach,48.54605,13.90501
413,4164,Schwarzenberg am Böhmerwald,48.73066,13.83437
413,4172,St. Johann am Wimberg,48.488,14.13036
413,4113,St. Martin im Mühlkreis,48.41609,14.03886
413,4171,St. Peter am Wimberg,48.5023,14.08246
413,4173,St. Veit im Mühlkreis,48.4679,14.16366
413,4161,Ulrichsberg,48.67514,13.9104
414,4721,Altschwendt,48.32262,13.68953
414,4770,Andorf,48.37172,13.57827
414,4786,Brunnenthal,48.4694,13.45928
414,4776,Diersbach,48.41245,13.57036
414,4751,Dorf,48.41552,13.91596
414,4773,Eggerding,48.34894,13.47747
414,4090,Engelhartszell,48.50569,13.73262
414,4761,Enzenkirchen,48.38811,13.64738
414,4092,Esternberg,48.54377,13.57262
414,4785,Freinberg,48.56581,13.51503
414,4794,Kopfing im Innkreis,48.43944,13.65849
414,4777,Mayrhof,48.35035,13.49325
414,4792,Münzkirchen,48.48445,13.56995
414,4760,Raab,48.35278,13.64608
414,4791,Rainbach im Innkreis,48.45596,13.53444
414,4752,Riedau,48.30245,13.6349
414,4784,Schardenberg,48.52027,13.4972
414,4780,Schärding,48.45668,13.43194
414,4771,Sigharting,48.39568,13.59876
414,4725,St. Aegidi,48.47866,13.73752
414,4782,St. Florian am Inn,48.44153,13.44273
414,4774,St. Marienkirchen bei Schärding,48.38778,13.44995
414,4793,St. Roman,48.48179,13.61171
414,4762,St. Willibald,48.36102,13.68555
414,4975,Suben,48.41176,13.43047
414,4775,Taufkirchen an der Pram,48.4068,13.52375
414,4091,Vichtenstein,48.528,13.65059
414,4783,Wernstein am Inn,48.50874,13.4602
414,4085,Wesenufer,48.45876,13.80912
414,4755,Zell an der Pram,48.31676,13.62906
402,4400,Steyr,48.03908,14.41933
402,4407,Steyr-Gleink,48.03908,14.41933
415,4541,Adlwang,47.9921,14.2173
415,4421,Aschach an der Steyr,48.01272,14.33522
415,4540,Bad Hall,48.03477,14.20898
415,3334,Gaflenz,47.89583,14.72488
415,4451,Garsten,48.02264,14.40749
415,4463,Großraming,47.88679,14.54947
415,4442,Kleinraming,48.01084,14.48982
415,4464,Kleinreifling,47.82024,14.63867
415,4461,Laussa,47.95184,14.45576
415,4460,Losenstein,47.92558,14.43313
415,4443,Maria Neustift,47.9374,14.6073
415,4523,Neuzeug,48.04632,14.33334
415,4462,Reichraming,47.89009,14.45982
415,4532,Rohr im Kremstal,48.06521,14.18774
415,4521,Schiedlberg,48.09157,14.26697
415,4522,Sierning,48.04427,14.30916
415,4452,Ternberg,47.94568,14.35688
415,4453,Trattenbach,47.92908,14.3545
415,4595,Waldneukirchen,47.99627,14.26008
415,3335,Weyer,47.85718,14.66386
415,4493,Wolfern,48.08333,14.37787
416,4211,Alberndorf in der Riedmark,48.40591,14.41826
416,4203,Altenberg bei Linz,48.37306,14.35044
416,4190,Bad Leonfelden,48.52172,14.29479
416,4209,Engerwitzdorf,48.344,14.44075
416,4101,Feldkirchen an der Donau,48.3446,14.05241
416,4210,Gallneukirchen,48.35327,14.41629
416,4201,Gramastetten,48.38072,14.18913
416,4202,Hellmonsödt,48.43176,14.29964
416,4175,Herzogsdorf,48.43054,14.11294
416,4181,Oberneukirchen,48.46436,14.22625
416,4100,Ottensheim,48.33183,14.17578
416,4048,Puchenau,48.31211,14.24169
416,4204,Reichenau im Mühlkreis,48.45608,14.34913
416,4193,Reichenthal,48.5436,14.385
416,4112,Rottenegg,48.3681,14.13475
416,4192,Schenkenfelden,48.5026,14.36251
416,4221,Steyregg,48.2853,14.37102
416,4183,Traberg,48.51397,14.20118
416,4191,Vorderweißenbach,48.55214,14.21926
416,4111,Walding,48.3507,14.15992
416,4182,Waxenberg,48.47725,14.19194
416,4180,Zwettl an der Rodl,48.46625,14.27135
417,4843,Ampflwang,48.09229,13.56547
417,4864,Attersee,47.91448,13.53816
417,4800,Attnang-Puchheim,48.00442,13.71653
417,4904,Atzbach,48.08371,13.70298
417,4691,Breitenschützing,48.08052,13.79882
417,4693,Desselbrunn,48.02128,13.772
417,4892,Fornach,48.02361,13.43
417,4873,Frankenburg am Hausruck,48.06788,13.49206
417,4890,Frankenmarkt,47.98543,13.4194
417,4851,Gampern,47.98898,13.5547
417,4860,Lenzing,47.97312,13.60515
417,5311,Loibichl,47.8298,13.40455
417,5310,Mondsee,47.85539,13.3502
417,4872,Neukirchen an der Vöckla,48.04102,13.53836
417,4692,Niederthalheim,48.09933,13.76871
417,4865,Nußdorf am Attersee,47.88299,13.52313
417,4894,Oberhofen am Irrsee,47.95165,13.30601
417,4882,Oberwang,47.86779,13.43363
417,4901,Ottnang,48.09608,13.66115
417,4891,Pöndorf,47.99672,13.36929
417,4846,Redlham,48.0232,13.74397
417,4844,Regau,47.99107,13.6883
417,4845,Rutzenmoos,47.9732,13.70857
417,4861,Schörfling,47.94602,13.60446
417,4690,Schwanenstadt,48.05538,13.77548
417,4863,Seewalchen am Attersee,47.95425,13.58616
417,4880,St. Georgen im Attergau,47.93539,13.4872
417,4853,Steinbach am Attersee,47.83085,13.54571
417,4881,Straß im Attergau,47.91043,13.45653
417,4905,Thomasroith,48.08139,13.61837
417,4850,Timelkam,48.00237,13.60796
417,4841,Ungenach,48.04734,13.61393
417,4866,Unterach,47.80439,13.48892
417,4840,Vöcklabruck,48.00697,13.65322
417,4870,Vöcklamarkt,48.00206,13.48482
417,4854,Weißenbach,47.66204,13.60516
417,4852,Weyregg am Attersee,47.90244,13.57149
417,4902,Wolfsegg am Hausruck,48.10725,13.67452
417,4893,Zell am Moos,47.90196,13.3185
417,4842,Zell am Pettenfirst,48.07732,13.59836
417,4871,Zipf,48.03621,13.50321
403,4600,Wels,48.15665,14.02462
418,4672,Bachmanning,48.12955,13.79424
418,4654,Bad Wimsbach-Neydharting,48.06328,13.90187
418,4611,Buchkirchen,48.22355,14.01961
418,4653,Eberstalzell,48.04406,13.98105
418,4623,Gunskirchen,48.13324,13.94085
418,4615,Holzhausen,48.22289,14.09686
418,4631,Krenglbach,48.20564,13.95511
418,4650,Lambach,48.09116,13.87467
418,4614,Marchtrenk,48.19076,14.10979
418,4613,Mistelbach bei Wels,48.22355,14.01961
418,4671,Neukirchen bei Lambach,48.10006,13.81471
418,4625,Offenhausen,48.15672,13.83658
418,4624,Pennewang,48.12864,13.84288
418,4632,Pichl bei Wels,48.18462,13.89966
418,4642,Sattledt,48.07379,14.05597
418,4621,Sipbachzell,48.09713,14.1097
418,4651,Stadl-Paura,48.08571,13.86958
418,4652,Steinerkirchen an der Traun,48.07883,13.9575
418,4641,Steinhaus,48.11917,14.01795
418,4616,Weißkirchen,48.16051,14.11054
502,5441,Abtenau,47.55657,13.35024
502,5421,Adnet,47.69675,13.13036
502,5524,Annaberg,47.52618,13.4322
502,5424,Bad Vigaun,47.66404,13.13187
502,5440,Golling an der Salzach,47.59749,13.16765
502,5400,Hallein,47.68275,13.09595
502,5422,Heilbad Dürrnberg,47.8005,13.04441
502,5431,Kuchl,47.62684,13.14528
502,5523,Lungötz,47.494,13.39922
502,5411,Oberalm,47.70018,13.099
502,5412,Puch bei Hallein,47.71714,13.09084
502,5442,Rußbach am Paß Gschütt,47.5926,13.46637
502,5423,St. Koloman,47.64293,13.20376
501,5020,Salzburg,47.8005,13.04441
501,5026,Salzburg-Aigen,47.79283,13.06532
501,5023,Salzburg-Gnigl,47.81158,13.0746
503,5342,Abersee,47.73326,13.42948
503,5351,Aigen-Voglhub,47.71054,13.53
503,5081,Anif,47.74965,13.06428
503,5102,Anthering,47.88026,13.01211
503,5101,Bergheim,47.84076,13.02265
503,5165,Berndorf bei Salzburg,47.99639,13.06124
503,5111,Bürmoos,47.98383,12.91945
503,5323,Ebenau,47.79078,13.17515
503,5161,Elixhausen,47.86832,13.06688
503,5061,Elsbethen-Glasenbach,47.77002,13.0885
503,5301,Eugendorf,47.86662,13.12253
503,5324,Faistenau,47.77805,13.23374
503,5330,Fuschl am See,47.79638,13.30355
503,5083,Gartenau-St. Leonhard,47.72559,13.04895
503,5114,Göming,47.94439,12.95273
503,5082,Grödig,47.737,13.03743
503,5084,Großgmain,47.72463,12.9067
503,5300,Hallwang,47.82289,13.1668
503,5302,Henndorf am Wallersee,47.8976,13.18659
503,5322,Hof bei Salzburg,47.81916,13.21467
503,5321,Koppl,47.80788,13.15679
503,5203,Köstendorf,47.95676,13.19791
503,5112,Lamprechtshausen,47.99162,12.95658
503,5163,Mattsee,47.97035,13.10473
503,5152,Michaelbeuern,48.0192,13.02782
503,5202,Neumarkt am Wallersee,47.94385,13.2245
503,5151,Nußdorf am Haunsberg,47.95917,13.00836
503,5110,Oberndorf bei Salzburg,47.93967,12.94266
503,5162,Obertrum am See,47.93703,13.07735
503,5325,Plainfeld,47.83243,13.1831
503,5205,Schleedorf,47.95401,13.15278
503,5164,Seeham,47.96736,13.07754
503,5201,Seekirchen,47.8944,13.12509
503,5113,St. Georgen bei Salzburg,47.97083,12.89183
503,5340,St. Gilgen,47.76697,13.36408
503,5204,Straßwalchen,47.98024,13.25494
503,5350,Strobl,47.71693,13.48335
503,5303,Thalgau,47.84164,13.25313
503,5071,Wals,47.78579,12.97052
504,5541,Altenmarkt im Pongau,47.37827,13.42292
504,5640,Bad Gastein,47.11435,13.136
504,5630,Bad Hofgastein,47.17086,13.10405
504,5500,Bischofshofen,47.41748,13.21872
504,5645,Böckstein,47.08701,13.11959
504,5632,Dorfgastein,47.24081,13.10656
504,5531,Eben im Pongau,47.40799,13.39533
504,5532,Filzmoos,47.43436,13.52168
504,5542,Flachau,47.34425,13.39269
504,5552,Forstau,47.37878,13.55154
504,5622,Goldegg,47.31868,13.09939
504,5611,Großarl,47.238,13.20089
504,5511,Hüttau,47.41591,13.30728
504,5612,Hüttschlag,47.17598,13.23152
504,5603,Kleinarl,47.27838,13.31932
504,5505,Mühlbach am Hochkönig,47.37697,13.12551
504,5521,Niedernfritz,47.42177,13.34501
504,5562,Obertauern,47.24867,13.55738
504,5452,Pfarrwerfen,47.45719,13.20478
504,5550,Radstadt,47.38474,13.4627
504,5620,Schwarzach im Pongau,47.32131,13.15187
504,5600,St. Johann im Pongau,47.34887,13.20231
504,5522,St. Martin am Tennengebirge,47.46433,13.38103
504,5621,St. Veit im Pongau,47.32899,13.1536
504,5451,Tenneck,47.49315,13.17549
504,5561,Untertauern,47.30436,13.50705
504,5602,Wagrain,47.3336,13.29633
504,5450,Werfen,47.47588,13.18997
504,5453,Werfenweng,47.46134,13.25665
505,5574,Göriach,47.1751,13.765
505,5571,Mariapfarr,47.15023,13.74533
505,5570,Mauterndorf,47.13357,13.68028
505,5583,Muhr,47.09875,13.49835
505,5591,Ramingstein,47.07568,13.84131
505,5572,St. Andrä im Lungau,47.14786,13.7935
505,5581,St. Margarethen im Lungau,47.07998,13.69546
505,5582,St. Michael im Lungau,47.09922,13.63962
505,5580,Tamsweg,47.12602,13.81104
505,5592,Thomatal,47.07198,13.74867
505,5563,Tweng,47.19002,13.60206
505,5585,Unternberg,47.11273,13.74046
505,5573,Weißpriach,47.1759,13.70415
505,5584,Zederhaus,47.15337,13.50646
506,5733,Bramberg am Wildkogel,47.27269,12.3481
506,5671,Bruck an der Großglocknerstraße,47.2864,12.82355
506,5652,Dienten am Hochkönig,47.3838,13.00426
506,5672,Fusch an der Glocknerstraße,47.22688,12.82657
506,5662,Gries,47.68477,13.10857
506,5754,Hinterglemm,47.37859,12.59586
506,5731,Hollersbach im Pinzgau,47.27531,12.41954
506,5710,Kaprun,47.27295,12.7588
506,5743,Krimml,47.22207,12.17531
506,5651,Lend,47.29877,13.04398
506,5771,Leogang,47.43954,12.76169
506,5090,Lofer,47.58723,12.69299
506,5751,Maishofen,47.36115,12.80606
506,5761,Maria Alm am Steinernen Meer,47.40669,12.90307
506,5730,Mittersill,47.28098,12.48163
506,5732,Mühlbach,47.27949,12.37682
506,5741,Neukirchen am Großvenediger,47.25364,12.2777
506,5722,Niedernsill,47.28249,12.64809
506,5721,Piesendorf,47.29206,12.71611
506,5661,Rauris,47.22961,12.99437
506,5753,Saalbach,47.37859,12.59586
506,5760,Saalfelden am Steinernen Meer,47.42643,12.84918
506,5092,St. Martin bei Lofer,47.56592,12.70623
506,5724,Stuhlfelden,47.28798,12.5289
506,5660,Taxenbach,47.2929,12.96348
506,5091,Unken,47.65003,12.72912
506,5723,Uttendorf,47.28448,12.57237
506,5752,Viehhofen,47.36657,12.73645
506,5742,Wald im Pinzgau,47.24705,12.2282
506,5093,Weißbach bei Lofer,47.52031,12.75269
506,5700,Zell am See,47.32375,12.79675
602,8623,Aflenz Kurort,47.54412,15.23834
602,8624,Au,47.54957,15.27316
602,8614,Breitenau,47.23056,15.48171
602,8600,Bruck an der Mur,47.41049,15.26907
602,8622,Etmißl,47.51531,15.17191
602,8635,Gollrad,47.65071,15.30472
602,8632,Gußwerk,47.74161,15.30852
602,8605,Kapfenberg,47.44353,15.2901
602,8630,Mariazell,47.7728,15.31746
602,8131,Mixnitz,47.33023,15.36207
602,8132,Pernegg an der Mur,47.35726,15.33852
602,8636,Seewiesen,47.61995,15.27155
602,8611,St. Katharein an der Laming,47.47107,15.16222
602,8642,St. Lorenzen im Mürztal,47.48246,15.37002
602,8641,St. Marein im Mürztal,47.47422,15.37082
602,8621,Thörl,47.52313,15.23278
602,8612,Tragöß-Oberort,47.53284,15.07827
602,8625,Turnau,47.55816,15.33797
602,8634,Wegscheid,47.68384,15.32332
603,8524,Bad Gams,46.86969,15.22305
603,8530,Deutschlandsberg,46.81553,15.21643
603,8552,Eibiswald,46.68656,15.24667
603,8523,Frauental an der Laßnitz,46.82624,15.25594
603,8522,Groß St. Florian,46.82359,15.31661
603,8502,Lannach,46.94302,15.33276
603,8544,Pölfing-Brunn,46.7329,15.31164
603,8504,Preding,46.85877,15.40688
603,8541,Schwanberg,46.75797,15.20187
603,8554,Soboth,46.68087,15.07546
603,8503,St. Josef Weststeiermark,46.91054,15.33709
603,8543,St. Martin im Sulmtal,46.75718,15.2944
603,8553,St. Oswald ob Eibiswald,46.70843,15.14381
603,8542,St. Peter im Sulmtal,46.75745,15.25009
603,8511,St. Stefan ob Stainz,46.92931,15.25601
603,8510,Stainz,46.8938,15.26398
603,8521,Wettmannstätten,46.83098,15.3845
603,8551,Wies,46.71898,15.27099
604,8344,Bad Gleichenberg,46.87684,15.90878
604,8313,Breitenfeld an der Rittschein,47.0299,15.95825
604,8332,Edelsbach bei Feldbach,46.98977,15.83673
604,8350,Fehring,46.9363,16.01084
604,8330,Feldbach,46.95274,15.88877
604,8342,Gnas,46.87388,15.82666
604,8361,Hatzendorf,46.97767,16.00246
604,8091,Jagerberg,46.85407,15.73772
604,8353,Kapfenstein,46.8853,15.97534
604,8082,Kirchbach in Steiermark,46.93148,15.66201
604,8324,Kirchberg an der Raab,46.98767,15.7631
604,8334,Lödersdorf,46.95715,15.94518
604,8341,Paldau,46.9406,15.79291
604,8333,Riegersburg,47.00118,15.93685
604,8354,St. Anna am Aigen,46.81895,15.97509
604,8083,St. Stefan im Rosental,46.90474,15.71119
604,8322,Studenzen,47.00264,15.76134
604,8343,Trautmannsdorf in Oststeiermark,46.87333,15.8836
604,8352,Unterlamm,46.97778,16.05847
605,8283,Bad Blumau,47.1158,16.05249
605,8291,Burgau,47.14297,16.09866
605,8280,Fürstenfeld,47.05012,16.07749
605,8265,Großsteinbach,47.14878,15.89647
605,8263,Großwilfersdorf,47.07726,15.99506
605,8264,Hainersdorf,47.114,15.94529
605,8262,Ilz,47.08649,15.92594
605,8282,Loipersdorf bei Fürstenfeld,47.01311,16.10134
605,8312,Ottendorf an der Rittschein,47.04868,15.89998
605,8362,Söchau,47.03052,16.0173
601,8010,Graz,47.06792,15.44172
601,8020,Graz,47.06792,15.44172
601,8036,Graz,47.06792,15.44172
601,8045,Graz-Andritz,47.10422,15.42226
601,8051,Graz-Gösting,47.09404,15.39875
601,8043,Graz-Kroisbach,47.09248,15.46351
601,8041,Graz-Liebenau,47.03545,15.46116
601,8044,Graz-Mariatrost,47.10947,15.49267
601,8053,Graz-Neuhart,47.04837,15.41755
601,8055,Graz-Puntigam,47.02897,15.43346
601,8047,Graz-Ragnitz,47.08453,15.49191
601,8042,Graz-St. Peter,47.04618,15.47907
601,8046,Graz-St. Veit,47.13066,15.38063
601,8054,Graz-Straßgang,47.02948,15.40316
601,8052,Graz-Wetzelsdorf,47.05256,15.39159
606,8121,Deutschfeistritz,47.19931,15.33557
606,8143,Dobl,46.94652,15.37717
606,8063,Eggersdorf bei Graz,47.12297,15.59937
606,8073,Feldkirchen bei Graz,47.01237,15.44324
606,8072,Fernitz,46.9733,15.50101
606,8130,Frohnleiten,47.26831,15.32533
606,8101,Gratkorn,47.13255,15.33912
606,8112,Gratwein,47.12929,15.31903
606,8075,Hart bei Graz,47.0449,15.51983
606,8071,Hausmannstätten,46.99087,15.50886
606,8151,Hitzendorf,47.03521,15.29986
606,8111,Judendorf-Straßengel,47.11332,15.33676
606,8401,Kalsdorf bei Graz,46.9644,15.47865
606,8062,Kumberg,47.16012,15.53424
606,8301,Laßnitzhöhe,47.07671,15.58226
606,8501,Lieboch,46.97519,15.33251
606,8302,Nestelbach bei Graz,47.06018,15.60964
606,8120,Peggau,47.20418,15.34543
606,8074,Raaba,47.02781,15.49677
606,8103,Rein,47.13722,15.28764
606,8102,Semriach,47.21744,15.40354
606,8323,St. Marein bei Graz,47.01561,15.6876
606,8113,St. Oswald bei Plankenwarth,47.08874,15.28103
606,8061,St. Radegund bei Graz,47.18064,15.48984
606,8114,Stübing,47.17751,15.32213
606,8144,Tobelbad,46.98067,15.36678
606,8124,Übelbach,47.22644,15.2349
606,8141,Unterpremstätten,46.97204,15.40349
606,8122,Waldstein,47.22278,15.28907
606,8402,Werndorf,46.92119,15.48136
606,8142,Wundschuh,46.92628,15.45099
607,8271,Bad Waltersdorf,47.16958,16.00932
607,8251,Bruck an der Lafnitz,47.43884,15.91576
607,8274,Buch,47.22621,15.89525
607,8241,Dechantskirchen,47.41636,16.0188
607,8273,Ebersdorf,47.20156,15.95636
607,8240,Friedberg,47.4416,16.05813
607,8232,Grafendorf bei Hartberg,47.34043,15.99125
607,8230,Hartberg,47.28125,15.96902
607,8224,Kaindorf bei Hartberg,47.23311,15.8809
607,8233,Lafnitz,47.36917,16.01283
607,8252,Mönichwald,47.44744,15.8827
607,8292,Neudau,47.17572,16.10222
607,8243,Pinggau,47.44406,16.06431
607,8225,Pöllau bei Hartberg,47.31641,15.83277
607,8234,Rohrbach an der Lafnitz,47.39063,15.9956
607,8244,Schäffern,47.47751,16.11145
607,8272,Sebersdorf,47.18605,15.99274
607,8255,St. Jakob,47.47958,15.77903
607,8222,St. Johann bei Herberstein,47.21493,15.81777
607,8295,St. Johann in der Haide,47.28117,16.02315
607,8242,St. Lorenzen am Wechsel,47.44231,15.9536
607,8223,Stubenberg am See,47.24469,15.80083
607,8294,Unterrohr,47.24806,16.05119
607,8250,Vorau,47.40561,15.88709
607,8253,Waldbach,47.44896,15.83759
607,8254,Wenigzell,47.42602,15.78631
607,8293,Wörth an der Lafnitz,47.21184,16.08154
608,8753,Fohnsdorf,47.20838,14.67808
608,8785,Hohentauern,47.4338,14.48371
608,8750,Judenburg,47.16784,14.66123
608,8763,Möderbrugg,47.27927,14.48115
608,8742,Obdach,47.06895,14.69471
608,8762,Oberzeiring,47.25264,14.49068
608,8761,Pöls,47.21993,14.58061
608,8764,Pusterwald,47.30953,14.37369
608,8756,St. Georgen ob Judenburg,47.20594,14.49838
608,8765,St. Johann am Tauern,47.35738,14.46901
608,8755,St. Peter ob Judenburg,47.18563,14.58729
608,8754,Thalheim,47.19559,14.59067
608,8800,Unzmarkt,47.19918,14.44571
608,8741,Weißkirchen in Steiermark,47.15409,14.73863
608,8740,Zeltweg,47.19008,14.75399
609,8731,Bischoffeld,47.27121,14.70478
609,8734,Großlobming,47.18615,14.80937
609,8720,Knittelfeld,47.21406,14.82915
609,8732,Seckau,47.27383,14.78597
609,8724,Spielberg,47.20712,14.79685
609,8715,St. Lorenzen bei Knittelfeld,47.25079,14.89606
609,8733,St. Marein bei Knittelfeld,47.26955,14.86104
610,8412,Allerheiligen bei Wildon,46.91421,15.55314
610,8454,Arnfels,46.67714,15.40244
610,8461,Ehrenhausen,46.72573,15.58488
610,8441,Fresing,46.75915,15.44675
610,8424,Gabersdorf,46.78239,15.58774
610,8462,Gamlitz,46.72054,15.55409
610,8443,Gleinstätten,46.75487,15.36776
610,8452,Großklein,46.73719,15.44241
610,8081,Heiligenkreuz am Waasen,46.95535,15.58668
610,8451,Heimschuh,46.76168,15.49272
610,8411,Hengsberg,46.86961,15.45077
610,8442,Kitzeck im Sausal,46.78163,15.45374
610,8403,Lebring,46.85434,15.5379
610,8430,Leibnitz,46.78141,15.53841
610,8463,Leutschach,46.66741,15.46827
610,8455,Oberhaag,46.68664,15.33355
610,8471,Spielfeld,46.70851,15.63215
610,8444,St. Andrä im Sausal,46.79084,15.37724
610,8413,St. Georgen an der Stiefing,46.88081,15.56572
610,8453,St. Johann im Saggautal,46.70256,15.40046
610,8505,St. Nikolai im Sausal,46.82124,15.4497
610,8422,St. Nikolai ob Draßling,46.81569,15.66038
610,8423,St. Veit am Vogau,46.74666,15.62555
610,8472,Straß in Steiermark,46.72733,15.62521
610,8435,Wagna,46.76596,15.5573
610,8410,Wildon,46.88723,15.50965
610,8421,Wolfsberg im Schwarzautal,46.84554,15.66019
611,8790,Eisenerz,47.54282,14.88476
611,8920,Hieflau,47.60577,14.74556
611,8775,Kalwang,47.42739,14.75553
611,8773,Kammern im Liesingtal,47.39303,14.90229
611,8714,Kraubath an der Mur,47.3066,14.9361
611,8700,Leoben,47.38138,15.0944
611,8774,Mautern in Steiermark,47.40061,14.82463
611,8712,Niklasdorf,47.39559,15.15977
611,8795,Radmer,47.54224,14.75918
611,8770,St. Michael in Obersteiermark,47.33687,15.02032
611,8792,St. Peter-Freienstein,47.39789,15.03325
611,8713,St. Stefan ob Leoben,47.31774,14.9777
611,8772,Timmersdorf,47.37657,14.96401
611,8793,Trofaiach,47.42656,15.00923
611,8794,Vordernberg,47.48801,14.99317
611,8781,Wald am Schoberpaß,47.45014,14.67401
612,8911,Admont,47.57765,14.46046
612,8966,Aich-Assach,47.42685,13.83781
612,8943,Aigen im Ennstal,47.52045,14.14319
612,8992,Altaussee,47.6398,13.76418
612,8934,Altenmarkt bei St. Gallen,47.72275,14.64959
612,8904,Ardning,47.59102,14.36397
612,8990,Bad Aussee,47.60938,13.78323
612,8983,Bad Mitterndorf,47.55524,13.9311
612,8953,Donnersbach,47.46398,14.12953
612,8783,Gaishorn am See,47.49141,14.54785
612,8922,Gams bei Hieflau,47.6678,14.78663
612,8962,Gröbming,47.44484,13.90162
612,8993,Grundlsee,47.63054,13.84263
612,8967,Haus,47.41041,13.76621
612,8952,Irdning,47.50545,14.104
612,8912,Johnsbach,47.5397,14.58435
612,8984,Kainisch,47.5748,13.84027
612,8921,Lainbach,47.63563,14.76712
612,8931,Landl,47.64681,14.77059
612,8903,Lassing,47.52697,14.26287
612,8940,Liezen,47.56884,14.24312
612,8974,Mandling,47.40407,13.57509
612,8960,Öblarn,47.46031,13.99138
612,8923,Palfau,47.71058,14.80829
612,8973,Pichl,47.39,13.61313
612,8965,Pruggern,47.42319,13.87555
612,8972,Ramsau,47.44175,13.65665
612,8971,Rohrmoos-Untertal,47.38338,13.67301
612,8786,Rottenmann,47.52521,14.35774
612,8970,Schladming,47.39193,13.68742
612,8900,Selzthal,47.55401,14.32277
612,8933,St. Gallen,47.6921,14.6171
612,8954,St. Martin am Grimming,47.48899,13.98066
612,8950,Stainach,47.53339,14.10876
612,8961,Stein an der Enns,47.43624,13.94003
612,8982,Tauplitz,47.56169,14.01225
612,8951,Trautenfels,47.51917,14.08377
612,8782,Treglwang,47.47529,14.59231
612,8784,Trieben,47.48805,14.48752
612,8932,Weißenbach an der Enns,47.70403,14.62905
612,8913,Weng,47.59847,14.50937
612,8924,Wildalpen,47.6645,14.98609
612,8942,Wörschach,47.5527,14.14756
614,8841,Frojach,47.13298,14.30818
614,8842,Katsch an der Mur,47.14277,14.28299
614,8854,Krakaudorf,47.18154,14.01941
614,8812,Mariahof,47.09998,14.39931
614,8822,Mühlen,47.0313,14.50781
614,8850,Murau,47.11065,14.17109
614,8820,Neumarkt in Steiermark,47.07253,14.42654
614,8831,Niederwölz,47.15151,14.37394
614,8832,Oberwölz,47.20653,14.28146
614,8863,Predlitz,47.0706,13.91582
614,8853,Ranten,47.15722,14.08255
614,8811,Scheifling,47.15049,14.4099
614,8844,Schöder,47.18206,14.11184
614,8861,St. Georgen ob Murau,47.10491,14.09896
614,8813,St. Lambrecht,47.07111,14.3015
614,8843,St. Peter am Kammersberg,47.18726,14.18765
614,8862,Stadl an der Mur,47.08863,13.9825
614,8852,Stolzalpe,47.11864,14.18925
614,8833,Teufenbach,47.13253,14.36031
614,8864,Turrach,46.96196,13.88446
614,9323,Wildbad Einöd,47.02244,14.41308
613,8643,Allerheiligen im Mürztal,47.48177,15.4061
613,8671,Alpl,47.50688,15.63829
613,8663,Dorf Veitsch,47.58889,15.49444
613,8694,Frein an der Mürz,47.74246,15.48463
613,8664,Großveitsch,47.58763,15.47172
613,8691,Kapellen,47.64702,15.63069
613,8650,Kindberg,47.50526,15.44888
613,8652,Kindberg-Aumühl,47.50935,15.40218
613,8670,Krieglach,47.54501,15.56133
613,8665,Langenwang,47.56664,15.6182
613,8662,Mitterdorf im Mürztal,47.53522,15.51178
613,8644,Mürzhofen,47.48424,15.39629
613,8693,Mürzsteg,47.67564,15.49302
613,8680,Mürzzuschlag,47.60589,15.67155
613,8682,Mürzzuschlag-Hönigsberg,47.58169,15.64658
613,8692,Neuberg an der Mürz,47.66698,15.57502
613,8684,Spital am Semmering,47.61601,15.75434
613,8653,Stanz im Mürztal,47.46589,15.49995
613,8685,Steinhaus am Semmering,47.62096,15.79092
613,8661,Wartberg im Mürztal,47.52549,15.49236
615,8490,Bad Radkersburg,46.68751,15.9872
615,8483,Deutsch Goritz,46.75198,15.82977
615,8482,Gosdorf,46.72526,15.79728
615,8492,Halbenrain,46.72171,15.94782
615,8493,Klöch,46.76464,15.96698
615,8092,Mettersdorf am Saßbach,46.80484,15.71113
615,8480,Mureck,46.70782,15.77462
615,8093,St. Peter am Ottersbach,46.79892,15.75952
615,8345,Straden,46.80626,15.87071
615,8355,Tieschen,46.78632,15.94507
615,8484,Unterpurkla,46.73176,15.90404
615,8481,Weinburg am Saßbach,46.75384,15.7212
615,8473,Weitersfeld an der Mur,46.70469,15.72691
616,8572,Bärnbach,47.07039,15.12877
616,8583,Edelschrott,47.02155,15.05103
616,8153,Geistthal,47.17103,15.16521
616,8593,Graden,47.06158,15.08274
616,8584,Hirschegg,47.02014,14.95782
616,8573,Kainach bei Voitsberg,47.14086,15.09202
616,8580,Köflach,47.06447,15.08381
616,8564,Krottendorf-Gaisfeld,47.02022,15.19881
616,8563,Ligist,46.99371,15.20702
616,8591,Maria Lankowitz,47.06383,15.06294
616,8562,Mooskirchen,46.98577,15.28062
616,8582,Rosental an der Kainach,47.05523,15.11414
616,8592,Salla,47.10807,14.97212
616,8561,Söding,46.99972,15.29137
616,8565,St. Johann ob Hohenburg,47.01115,15.22663
616,8152,Stallhofen,47.04857,15.22084
616,8570,Voitsberg,47.04948,15.15002
617,8184,Anger,47.27394,15.69082
617,8190,Birkfeld,47.35491,15.69447
617,8654,Fischbach,47.44157,15.65143
617,8163,Fladnitz an der Teichalm,47.28543,15.47753
617,8183,Floing,47.26392,15.74685
617,8616,Gasen,47.38365,15.57827
617,8200,Gleisdorf,47.10475,15.71133
617,8211,Großpesendorf,47.15162,15.76134
617,8172,Heilbrunn,47.33713,15.60967
617,8221,Hirnsdorf,47.19374,15.82853
617,8191,Koglhof,47.31973,15.69034
617,8311,Markt Hartmannsdorf,47.05434,15.84248
617,8162,Passail,47.28136,15.51532
617,8212,Pischelsdorf in der Steiermark,47.17297,15.80599
617,8182,Puch bei Weiz,47.22428,15.72514
617,8673,Ratten,47.48371,15.72138
617,8674,Rettenegg,47.52645,15.77974
617,8261,Sinabelkirchen,47.10297,15.82733
617,8672,St. Kathrein am Hauenstein,47.48947,15.69202
617,8171,St. Kathrein am Offenegg,47.30122,15.57621
617,8321,St. Margarethen an der Raab,47.04507,15.74529
617,8181,St. Ruprecht an der Raab,47.15359,15.66212
617,8192,Strallegg,47.41012,15.72465
617,8160,Weiz,47.21723,15.62263
702,6471,Arzl im Pitztal,47.20736,10.76171
702,6425,Haiming,47.25382,10.88518
702,6452,Hochsölden,46.9772,10.98217
702,6460,Imst,47.24453,10.73949
702,6474,Jerzens,47.14974,10.74674
702,6462,Karres,47.2195,10.77665
702,6444,Längenfeld,47.07542,10.96971
702,6414,Mieming,47.33934,10.97255
702,6423,Mötz,47.28144,10.95558
702,6465,Nassereith,47.31439,10.83817
702,6456,Obergurgl,46.87059,11.02737
702,6416,Obsteig,47.29803,10.92754
702,6433,Oetz,47.2042,10.89273
702,6430,Ötztal Bahnhof,47.23774,10.85928
702,6421,Rietz,47.28605,11.03026
702,6426,Roppen,47.21758,10.82097
702,6432,Sautens,47.20808,10.86505
702,6424,Silz,47.26558,10.92748
702,6450,Sölden,46.96672,11.00738
702,6481,St. Leonhard im Pitztal,47.06634,10.84718
702,6422,Stams,47.27667,10.98288
702,6464,Tarrenz,47.26241,10.76209
702,6441,Umhausen,47.13902,10.92782
702,6458,Vent,46.86183,10.91574
702,6473,Wenns,47.16958,10.7316
701,6020,Innsbruck,47.26269,11.3947
703,6067,Absam,47.29528,11.50542
703,6071,Aldrans,47.25125,11.44601
703,6070,Ampass,47.26307,11.46509
703,6094,Axams,47.23037,11.27916
703,6121,Baumkirchen,47.30025,11.56403
703,6092,Birgitz,47.23544,11.2995
703,6083,Ellbögen,47.18608,11.43099
703,6403,Flaurling,47.29235,11.12234
703,6122,Fritzens,47.30728,11.58827
703,6166,Fulpmes,47.15297,11.3489
703,6069,Gnadenwald,47.32326,11.5754
703,6091,Götzens,47.23612,11.31134
703,6156,Gries am Brenner,47.03858,11.47915
703,6182,Gries im Sellrain,47.19552,11.15597
703,6095,Grinzens,47.22949,11.25417
703,6060,Hall in Tirol,47.28097,11.50434
703,6402,Hatting,47.27781,11.16781
703,6080,Innsbruck-Igls,47.23083,11.4107
703,6401,Inzing,47.2741,11.19697
703,6175,Kematen in Tirol,47.25435,11.27242
703,6114,Kolsass,47.30018,11.63083
703,6115,Kolsassberg,47.28207,11.65282
703,6183,Kühtai,47.21384,11.02455
703,6072,Lans,47.23847,11.43282
703,6105,Leutasch,47.37013,11.14271
703,6143,Matrei am Brenner,47.13159,11.45272
703,6142,Mieders,47.16969,11.38118
703,6068,Mils,47.28835,11.53245
703,6162,Mutters,47.22762,11.37716
703,6161,Natters,47.23405,11.37356
703,6145,Navis,47.13068,11.54059
703,6167,Neustift im Stubaital,47.11058,11.3065
703,6406,Oberhofen im Inntal,47.30402,11.0958
703,6157,Obernberg am Brenner,47.01591,11.41839
703,6173,Oberperfuss,47.24426,11.24943
703,6082,Patsch,47.20443,11.4151
703,6408,Pettnau,47.29288,11.16181
703,6405,Pfaffenhofen,47.299,11.08206
703,6404,Polling,47.28107,11.15109
703,6179,Ranggen,47.25748,11.21046
703,6103,Reith bei Seefeld,47.2994,11.20316
703,6074,Rinn,47.24897,11.50189
703,6063,Rum,47.28694,11.46036
703,6108,Scharnitz,47.38882,11.26402
703,6141,Schönberg im Stubaital,47.18612,11.40433
703,6100,Seefeld in Tirol,47.32985,11.18741
703,6181,Sellrain,47.21346,11.21446
703,6073,Sistrans,47.23807,11.44686
703,6154,St. Jodok am Brenner,47.06252,11.50098
703,6184,St. Sigmund,47.20286,11.10121
703,6150,Steinach am Brenner,47.09147,11.46664
703,6165,Telfes im Stubai,47.16427,11.35861
703,6410,Telfs,47.30646,11.07151
703,6065,Thaur,47.29379,11.47255
703,6152,Trins,47.08287,11.41631
703,6075,Tulfes,47.25711,11.53068
703,6178,Unterperfuss,47.25993,11.25848
703,6111,Volders,47.28743,11.56546
703,6176,Völs,47.25201,11.3282
703,6113,Wattenberg,47.26424,11.61141
703,6112,Wattens,47.29168,11.59285
703,6170,Zirl,47.27333,11.24227
704,6371,Aurach,47.4175,12.43354
704,6364,Brixen im Thale,47.4503,12.24985
704,6383,Erpfendorf,47.57581,12.47892
704,6391,Fieberbrunn,47.47589,12.54445
704,6353,Going am Wilden Kaiser,47.5143,12.32751
704,6395,Hochfilzen,47.46896,12.62198
704,6361,Hopfgarten,47.44936,12.15929
704,6305,Itter,47.47052,12.14409
704,6373,Jochberg,47.37979,12.41945
704,6365,Kirchberg in Tirol,47.4471,12.31385
704,6382,Kirchdorf in Tirol,47.55825,12.44756
704,6370,Kitzbühel,47.44548,12.39194
704,6345,Kössen,47.66919,12.40483
704,6372,Oberndorf in Tirol,47.49953,12.38506
704,6385,Schwendt,47.63044,12.39241
704,6392,St. Jakob in Haus,47.50058,12.55983
704,6380,St. Johann in Tirol,47.52163,12.43061
704,6393,St. Ulrich am Pillersee,47.52913,12.57364
704,6384,Waidring,47.58436,12.57016
704,6363,Westendorf,47.43194,12.21445
705,6236,Alpbach,47.39909,11.94312
705,6320,Angerberg,47.50627,12.03985
705,6323,Bad Häring,47.51062,12.11888
705,6234,Brandenberg,47.49033,11.89448
705,6252,Breitenbach am Inn,47.47827,11.97379
705,6230,Brixlegg,47.43003,11.8785
705,6341,Ebbs,47.63355,12.21414
705,6352,Ellmau,47.51361,12.30161
705,6343,Erl,47.68168,12.18056
705,6322,Kirchbichl,47.51163,12.0867
705,6233,Kramsach,47.44718,11.88358
705,6330,Kufstein,47.58296,12.17077
705,6250,Kundl,47.46846,11.98431
705,6336,Langkampfen,47.55111,12.09325
705,6324,Mariastein,47.52785,12.05519
705,6232,Münster,47.42148,11.83359
705,6342,Niederndorf,47.6503,12.21558
705,6241,Radfeld,47.44616,11.91078
705,6240,Rattenberg,47.43992,11.89436
705,6235,Reith im Alpbachtal,47.41648,11.87843
705,6351,Scheffau am Wilden Kaiser,47.52855,12.25013
705,6334,Schwoich,47.54415,12.14087
705,6306,Söll,47.50361,12.19169
705,6335,Thiersee,47.59425,12.11792
705,6344,Walchsee,47.65125,12.31769
705,6313,Wildschönau-Auffach,47.41109,12.03529
705,6314,Wildschönau-Niederau,47.4514,12.08816
705,6311,Wildschönau-Oberau,47.44404,12.04856
705,6300,Wörgl,47.48932,12.06277
706,6524,Feichten im Kaunertal,46.96297,10.7498
706,6528,Fendels,47.05419,10.67662
706,6533,Fiss,47.05542,10.61846
706,6521,Fließ,47.11952,10.62955
706,6572,Flirsch,47.14872,10.40786
706,6563,Galtür,46.96851,10.18733
706,6591,Grins,47.14139,10.51609
706,6492,Imsterberg,47.20636,10.69717
706,6561,Ischgl,47.01196,10.29154
706,6555,Kappl,47.06331,10.3757
706,6527,Kaunerberg,47.08144,10.71228
706,6532,Ladis,47.07414,10.64871
706,6500,Landeck,47.1385,10.56652
706,6562,Mathon,46.989,10.24506
706,6493,Mils,47.28835,11.53245
706,6543,Nauders,46.89106,10.50263
706,6574,Pettneu am Arlberg,47.14797,10.34053
706,6542,Pfunds,46.96848,10.53609
706,6551,Pians,47.13532,10.5116
706,6522,Prutz,47.07654,10.66352
706,6531,Ried im Oberinntal,47.05491,10.65356
706,6491,Schönwies,47.19677,10.65597
706,6553,See,47.08405,10.46987
706,6534,Serfaus,47.03841,10.60774
706,6544,Spiss,46.95959,10.4312
706,6580,St. Anton am Arlberg,47.12744,10.26378
706,6571,Strengen,47.12529,10.46309
706,6552,Tobadill,47.12544,10.51321
706,6541,Tösens,47.01734,10.60605
706,6511,Zams,47.15797,10.58966
707,9913,Abfaltersbach,46.75681,12.52862
707,9951,Ainet,46.86575,12.69121
707,9912,Anras,46.77211,12.55573
707,9911,Assling,46.78625,12.63662
707,9931,Außervillgraten,46.78654,12.42902
707,9991,Dölsach,46.82656,12.84079
707,9905,Gaimberg,46.84699,12.79185
707,9961,Hopfgarten in Defereggen,46.92118,12.52122
707,9932,Innervillgraten,46.80785,12.37166
707,9992,Iselsberg-Stronach,46.83812,12.84425
707,9981,Kals,47.00124,12.64516
707,9941,Kartitsch,46.72614,12.4982
707,9909,Leisach,46.81007,12.75057
707,9900,Lienz,46.82946,12.76895
707,9971,Matrei in Osttirol,46.99682,12.54145
707,9782,Nikolsdorf,46.78559,12.90456
707,9990,Nußdorf-Debant,46.83159,12.81479
707,9942,Obertilliach,46.71027,12.61689
707,9974,Prägraten,47.0174,12.37578
707,9954,Schlaiten,46.87714,12.65567
707,9920,Sillian,46.7476,12.41762
707,9963,St. Jakob in Defereggen,46.91682,12.32994
707,9952,St. Johann im Walde,46.90312,12.62753
707,9962,St. Veit in Defereggen,46.92472,12.4246
707,9904,Thurn,46.84845,12.76099
707,9943,Untertilliach,46.70365,12.67766
707,9972,Virgen,47.00348,12.45849
708,6653,Bach,47.26989,10.40367
708,6622,Berwang,47.40913,10.74972
708,6633,Biberwier,47.38365,10.89204
708,6621,Bichlbach,47.42002,10.78825
708,6632,Ehrwald,47.39835,10.92021
708,6652,Elbigenalp,47.29103,10.43678
708,6644,Elmen,47.33924,10.54236
708,6670,Forchach,47.41913,10.58685
708,6650,Gramais,47.2689,10.53653
708,6673,Grän,47.50233,10.55365
708,6651,Häselgehr,47.30691,10.48833
708,6611,Heiterwang,47.44411,10.74835
708,6646,Hinterhornbach,47.36065,10.46177
708,6604,Höfen,47.47007,10.68479
708,6654,Holzgau,47.26087,10.34478
708,6691,Jungholz,47.5735,10.44784
708,6631,Lermoos,47.39852,10.88747
708,6623,Namlos,47.35553,10.65542
708,6672,Nesselwängle,47.48515,10.60949
708,6647,Pfafflar,47.28294,10.62134
708,6600,Reutte,47.48748,10.71949
708,6677,Schattwald,47.51362,10.46109
708,6642,Stanzach,47.38296,10.56101
708,6655,Steeg,47.24306,10.29413
708,6675,Tannheim,47.49943,10.51619
708,6682,Vils,47.54925,10.63048
708,6645,Vorderhornbach,47.36967,10.53996
708,6610,Wängle,47.48763,10.68974
708,6671,Weißenbach am Lech,47.44178,10.64239
709,6215,Achenkirch,47.5275,11.70754
709,6274,Aschau,47.26807,11.88204
709,6260,Bruck am Ziller,47.3912,11.85051
709,6292,Finkenberg,47.154,11.82461
709,6263,Fügen,47.34604,11.84988
709,6264,Fügenberg,47.35468,11.84165
709,6222,Gallzein,47.36667,11.76667
709,6281,Gerlos,47.22586,12.03736
709,6295,Ginzling,47.10141,11.81009
709,6278,Hainzenberg,47.21852,11.8992
709,6265,Hart im Zillertal,47.34997,11.87314
709,6294,Hintertux,47.11427,11.68128
709,6283,Hippach,47.20383,11.86568
709,6200,Jenbach,47.39167,11.77126
709,6272,Kaltenbach,47.29339,11.8753
709,6212,Maurach,47.38296,11.78193
709,6290,Mayrhofen,47.16691,11.86292
709,6213,Pertisau,47.43983,11.69586
709,6136,Pill,47.32011,11.68127
709,6284,Ramsau im Zillertal,47.20471,11.87402
709,6262,Schlitters,47.37698,11.84082
709,6130,Schwaz,47.34487,11.7081
709,6135,Stans,47.36969,11.7163
709,6261,Strass im Zillertal,47.39575,11.82211
709,6275,Stumm,47.29245,11.88595
709,6276,Stummerberg,47.2893,11.90073
709,6123,Terfens,47.32237,11.6426
709,6293,Tux,47.12894,11.70734
709,6271,Uderns,47.32249,11.8639
709,6134,Vomp,47.34186,11.68282
709,6133,Weerberg,47.25858,11.70355
709,6210,Wiesing,47.40522,11.79757
709,6280,Zell am Ziller,47.23337,11.88161
709,6277,Zellberg,47.24186,11.85141
801,6781,Bartholomäberg,47.09236,9.90772
801,6723,Blons,47.22264,9.83334
801,6700,Bludenz,47.15556,9.8207
801,6719,Bludesch,47.19963,9.74716
801,6708,Brand,47.10857,9.7427
801,6751,Braz,47.14543,9.91487
801,6706,Bürs,47.15005,9.80377
801,6707,Bürserberg,47.14673,9.7778
801,6752,Dalaas,47.12298,9.99945
801,6733,Fontanella,47.24739,9.90878
801,6787,Gargellen,46.97156,9.91828
801,6793,Gaschurn,46.98903,10.02457
801,6754,Klösterle,47.13105,10.09151
801,6764,Lech,47.20812,10.1417
801,6713,Ludesch,47.19665,9.77877
801,6710,Nenzing,47.18432,9.70552
801,6714,Nüziders,47.17352,9.8014
801,6794,Partenen,46.96854,10.06388
801,6741,Raggal,47.21072,9.83759
801,6780,Schruns,47.08067,9.91763
801,6731,Sonntag,47.23799,9.89659
801,6771,St. Anton im Montafon,47.11154,9.86562
801,6791,St. Gallenkirch,47.02054,9.97405
801,6722,St. Gerold,47.22053,9.81573
801,6762,Stuben,47.1175,10.1434
801,6712,Thüringen,47.19787,9.76601
801,6721,Thüringerberg,47.21494,9.7827
801,6774,Tschagguns,47.07773,9.90195
801,6773,Vandans,47.09627,9.8646
801,6763,Zürs,47.17055,10.16317
802,6861,Alberschwende,47.45039,9.8313
802,6866,Andelsbuch,47.41319,9.89513
802,6883,Au,47.32224,9.97899
802,6870,Bezau,47.38457,9.90151
802,6874,Bizau,47.36929,9.92934
802,6900,Bregenz,47.50304,9.74707
802,6884,Damüls,47.28021,9.89165
802,6933,Doren,47.49257,9.88026
802,6863,Egg,47.43132,9.89722
802,6972,Fußach,47.47997,9.66405
802,6974,Gaißau,47.4657,9.59837
802,6971,Hard,47.48841,9.68862
802,6992,Hirschegg,47.34811,10.17171
802,6952,Hittisau,47.45768,9.95949
802,6973,Höchst,47.45967,9.6379
802,6914,Hohenweiler,47.58856,9.78138
802,6912,Hörbranz,47.55588,9.75307
802,6921,Kennelbach,47.48088,9.76596
802,6942,Krumbach,47.48292,9.93495
802,6932,Langen bei Bregenz,47.50836,9.82932
802,6941,Langenegg,47.463,9.90561
802,6923,Lauterach,47.47693,9.73139
802,6951,Lingenau,47.44979,9.92035
802,6911,Lochau,47.52988,9.75156
802,6881,Mellau,47.35031,9.88191
802,6993,Mittelberg,47.32406,10.15491
802,6943,Riefensberg,47.50423,9.9636
802,6991,Riezlern,47.35775,10.18713
802,6882,Schnepfau,47.35198,9.94529
802,6886,Schoppernau,47.31398,10.0164
802,6888,Schröcken,47.2581,10.0924
802,6858,Schwarzach,47.44471,9.76298
802,6867,Schwarzenberg,47.4138,9.85229
802,6934,Sulzberg,47.52149,9.91427
802,6767,Warth,47.25805,10.18312
802,6922,Wolfurt,47.47313,9.75293
802,6960,Wolfurt-Bahnhof,47.45308,9.75198
803,6850,Dornbirn,47.41328,9.74374
803,6845,Hohenems,47.36343,9.68987
803,6890,Lustenau,47.42642,9.65852
804,6844,Altach,47.35466,9.65206
804,6800,Feldkirch,47.23835,9.59622
804,6820,Frastanz,47.21693,9.63061
804,6811,Göfis,47.23631,9.63233
804,6840,Götzis,47.3337,9.64474
804,6833,Klaus-Weiler,47.30898,9.62432
804,6842,Koblach,47.33085,9.60149
804,6841,Mäder,47.34911,9.61528
804,6812,Meiningen,47.29934,9.57847
804,6830,Rankweil,47.27052,9.64312
804,6822,Satteins,47.22523,9.67198
804,6824,Schlins,47.20614,9.69965
804,6832,Sulz-Röthis,47.29441,9.65085
804,6834,Übersaxen,47.25245,9.67112
804,6836,Viktorsberg,47.30154,9.67569
804,6835,Zwischenwasser,47.28135,9.67172
900,1010,1 - Innere Stadt,48.20921,16.37278
900,1020,2 - Leopoldstadt,48.218,16.39036
900,1030,3 - Landstraße,48.20174,16.39159
900,1040,4 - Wieden,48.20921,16.37278
900,1050,5 - Margareten,48.1904,16.35402
900,1060,6 - Mariahilf,48.19456,16.35039
900,1070,7 - Neubau,48.2042,16.35146
900,1080,8 - Josefstadt,48.2106,16.34403
900,1090,9 - Alsergrund,48.22451,16.35423
900,1100,10 - Favoriten,48.17323,16.37862
900,1110,11 - Simmering,48.17428,16.41643
900,1120,12 - Meidling,48.17427,16.32962
900,1130,13 - Hietzing,48.18632,16.29836
900,1140,14 - Penzing,48.19813,16.3024
900,1150,15 - Rudolfsheim-Fünfhaus,48.19937,16.32754
900,1160,16 - Ottakring,48.21276,16.31108
900,1170,17 - Hernals,48.21806,16.33233
900,1180,18 - Währing,48.22661,16.34226
900,1190,19 - Döbling,48.24101,16.34882
900,1200,20 - Brigittenau,48.22997,16.37109
900,1210,21 - Floridsdorf,48.2581,16.3979
900,1220,22 - Donaustadt,48.24176,16.43486
900,1230,23 - Liesing,48.14613,16.297
900,1300,Flughafen,48.12089,16.56269
